route,dir,service_type,seq,stop,name_tc,name_sc,name_en,lat,long
53,O,1,1,65B07713A0DDFF22,元朗 形點 (YL400),元朗 形点 (YL400),YOHO MALL (YUEN LONG) (YL400),22.445065,114.036445
53,O,1,2,CCBBE2779B1765C4,元朗又新街 (S4) (YL248),元朗又新街 (S4) (YL248),YAU SAN STREET YUEN LONG (S4) (YL248),22.444299,114.030887
53,O,1,3,D9CE618F99BAC2B6,元朗康樂路 (S10) (YL254),元朗康乐路 (S10) (YL254),HONG LOK ROAD YUEN LONG (S10) (YL254),22.444365,114.026102
53,O,1,4,1B0FD9C27F5FE0BE,元朗警署 (S14) (YL258),元朗警署 (S14) (YL258),YUEN LONG POLICE STATION (S14) (YL258),22.444452,114.023955
53,O,1,5,A010FE2C473103A8,水邊村 (YL259),水边村 (YL259),SHUI PIN TSUEN (YL259),22.444444,114.021349
53,O,1,6,70FEB409760C77EE,元朗公園 (YL261),元朗公园 (YL261),YUEN LONG PARK (YL261),22.444092,114.018874
53,O,1,7,A1A1B10F5CE291AC,朗邊 (YL263),朗边 (YL263),LONG BIN (YL263),22.443219,114.014384
53,O,1,8,A11650027CA0992C,屏山屏興里 (YL610),屏山屏兴里 (YL610),PING HING LANE PING SHAN (YL610),22.443494,114.010237
53,O,1,9,41D1C3067A2D555F,坑尾村 (YL611),坑尾村 (YL611),HANG MEI TSUEN (YL611),22.443695,114.00767
53,O,1,10,88F23AAD9EC3F5C6,屏欣苑 (YL612),屏欣苑 (YL612),PING YAN COURT (YL612),22.445968,114.004694
53,O,1,11,71C5FC4FF2FDE0CA,天水圍站 (YL614),天水围站 (YL614),TIN SHUI WAI STATION (YL614),22.446593,114.002955
53,O,1,12,0F0D2B88FB6F7150,天水圍石埗路 (YL615),天水围石埗路 (YL615),SHEK PO ROAD TIN SHUI WAI (YL615),22.446724,113.998195
53,O,1,13,D329FD6BF0C3DE7D,沙洲里村 (YL616),沙洲里村 (YL616),SHA CHAU LEI TSUEN (YL616),22.446117,113.995192
53,O,1,14,56D7B8874849BB6B,廈村市 (YL620),厦村市 (YL620),HA TSUEN SHI (YL620),22.4462,113.993453
53,O,1,15,03F3BF97A3BCA7CC,新屋村 (YL621),新屋村 (YL621),SAN UK TSUEN (YL621),22.445121,113.992355
53,O,1,16,8731A302A4F4C930,李屋村 (YL622),李屋村 (YL622),LEE UK TSUEN (YL622),22.443791,113.9914
53,O,1,17,BCFD8D6861CF7273,新生村 (YL623),新生村 (YL623),SAN SANG TSUEN (YL623),22.440162,113.991679
53,O,1,18,D647696D172E5620,新李屋村 (YL624),新李屋村 (YL624),SAN LEE UK TSUEN (YL624),22.436083,113.992253
53,O,1,19,BB4F24A4C6A9B222,田心 (YL625),田心 (YL625),TIN SUM (YL625),22.433621,113.992743
53,O,1,20,F61DB78CF72DB387,鄉事委員會 (YL626),乡事委员会 (YL626),RURAL COMMITTEE (YL626),22.431445,113.992908
53,O,1,21,92A09EC9B712A1ED,鍾屋村站 (TM273),钟屋村站 (TM273),CHUNG UK TSUEN STATION (TM273),22.429689,113.992695
53,O,1,22,4885700825A72F51,亦園村 (TM275),亦园村 (TM275),YICK YUEN TSUEN (TM275),22.426912,113.989881
53,O,1,23,A1541789F09C89BA,泥圍 (TM277),泥围 (TM277),NAI WAI (TM277),22.423907,113.987079
53,O,1,24,D073CC71A1B4F79C,福亨村 (TM279),福亨村 (TM279),FUK HANG TSUEN (TM279),22.422574,113.985749
53,O,1,25,B64EEA7F564C7853,妙法寺 (TM281),妙法寺 (TM281),MIU FAT BUDDHIST MONASTERY (TM281),22.420492,113.983893
53,O,1,26,46D1A9FD1F84CA5C,藍地站 (TM284),蓝地站 (TM284),LAM TEI STATION (TM284),22.418325,113.982282
53,O,1,27,F1D1F84A466543BE,富泰邨 (TM286),富泰邨 (TM286),FU TAI ESTATE (TM286),22.412973,113.982399
53,O,1,28,AA5DA45828958EAE,嶺南大學 (TM290),岭南大学 (TM290),LINGNAN UNIVERSITY (TM290),22.409975,113.982404
53,O,1,29,876057D899CE09C9,彩暉花園 (TM293),彩晖花园 (TM293),BRILLIANT GARDEN (TM293),22.408498,113.980004
53,O,1,30,A8F45422814FF3EB,井財街 (TM140),井财街 (TM140),TSENG CHOI STREET (TM140),22.402246,113.977684
53,O,1,31,642F7D358D36F715,新圍仔 (TM296),新围仔 (TM296),SAN WAI TSAI (TM296),22.397501,113.97749
53,O,1,32,F269ACD809D1B43E,何福堂書院 (TM297),何福堂书院 (TM297),HOH FUK TONG COLLEGE (TM297),22.395933,113.977739
53,O,1,33,68354B780EDFC52B,華都花園 (TM298),华都花园 (TM298),WALDORF GARDEN (TM298),22.392442,113.979209
53,O,1,34,01F91A12857E4531,恒順園 (TM299),恒顺园 (TM299),HANDSOME COURT (TM299),22.38695,113.980954
53,O,1,35,630AA1866C5372B6,恒豐園 (TM302),恒丰园 (TM302),HARVEST GARDEN (TM302),22.384771,113.980968
53,O,1,36,C90375A74B02D2E8,三聖邨 (TM304),三圣邨 (TM304),SAM SHING ESTATE (TM304),22.38183,113.97885
53,O,1,37,EEC48EC880FC63CB,青山灣 (TM307),青山湾 (TM307),CASTLE PEAK BEACH (TM307),22.379044,113.980643
53,O,1,38,242418A9AB386596,海景花園 (TM308),海景花园 (TM308),SEA VIEW GARDEN (TM308),22.37791,113.98368
53,O,1,39,A9D85812EAEE6C17,咖啡灣 (TM310),咖啡湾 (TM310),CAFETERIA BEACH (TM310),22.375472,113.9863
53,O,1,40,971554761E4413EF,黃金泳灘 (TM312),黄金泳滩 (TM312),GOLDEN BEACH (TM312),22.3738,113.990764
53,O,1,41,7FB2AE7FA13EDB0F,香港黃金海岸 (TM314),香港黄金海岸 (TM314),HONG KONG GOLD COAST (TM314),22.372424,113.993293
53,O,1,42,4F64DA53415F3128,嘉和里村 (TM316),嘉和里村 (TM316),KAR WO LEI TSUEN (TM316),22.369391,113.995422
53,O,1,43,BF7FD3BC4994EBE5,小秀村 (TM318),小秀村 (TM318),SIU SAU TSUEN (TM318),22.368015,113.998665
53,O,1,44,9DC117C78DBDB1A7,愛琴灣 (TM320),爱琴湾 (TM320),THE AEGEAN (TM320),22.366437,114.00257
53,O,1,45,BD52FF1BA0AC99BE,小欖新村 (TM323),小榄新村 (TM323),SIU LAM SAN TSUEN (TM323),22.366438,114.006441
53,O,1,46,1F2376A52800A2CA,小欖村 (TM325),小榄村 (TM325),SIU LAM TSUEN (TM325),22.366308,114.011269
53,O,1,47,0B72FFAB7F7230E4,小欖澄麗路 (TM326),小榄澄丽路 (TM326),CHING LAI ROAD SIU LAM (TM326),22.365493,114.013
53,O,1,48,620557B9486BE4BF,屯門公路轉車站 (A12) (TM744),屯门公路转车站 (A12) (TM744),TUEN MUN ROAD BBI (A12) (TM744),22.36272,114.015802
53,O,1,49,E3E5521CAFDD5DCE,大欖涌 (TM328),大榄涌 (TM328),TAI LAM CHUNG (TM328),22.361543,114.019334
53,O,1,50,D3CA3780D3E342FC,嘉龍村 (TW330),嘉龙村 (TW330),KA LOON TSUEN (TW330),22.356655,114.032725
53,O,1,51,6FBEA411A4940B6C,御海峰 (TW331),御海峰 (TW331),VISTACOVE (TW331),22.357785,114.035574
53,O,1,52,1064E673770C38BC,豪景花園 (TW332),豪景花园 (TW332),HONG KONG GARDEN (TW332),22.360788,114.042278
53,O,1,53,2DFE2D85D53C1114,青龍頭村 (TW333),青龙头村 (TW333),TSING LUNG TAU TSUEN (TW333),22.3615,114.046195
53,O,1,54,C4E03BB27317AF35,浪翠園第四期 (TW335),浪翠园第四期 (TW335),SEA CREST VILLA PHASE 4 (TW335),22.36237,114.050728
53,O,1,55,30DD3451F8D64883,浪翠園第三期 (TW337),浪翠园第三期 (TW337),SEA CREST VILLA PHASE 3 (TW337),22.364022,114.054374
53,O,1,56,8AFF8B43EC3E547F,馬灣碼頭 (TW339),马湾码头 (TW339),MA WAN PIER (TW339),22.365504,114.056578
53,O,1,57,83C4F756489484B5,深井村 (TW343),深井村 (TW343),SHAM TSENG VILLAGE (TW343),22.367229,114.059089
53,O,1,58,ED9E5ACF98190E5C,海韻花園 (TW346),海韵花园 (TW346),RHINE GARDEN (TW346),22.367721,114.061674
53,O,1,59,D7D5410F2F97D682,深井深慈街 (TW348),深井深慈街 (TW348),SHAM TSZ STREET SHAM TSENG (TW348),22.367276,114.062922
53,O,1,60,DA87D4887F5FAF62,海美灣 (TW349),海美湾 (TW349),HOI MEI BEACH (TW349),22.364475,114.069412
53,O,1,61,81F1ECC7278CDC18,麗都灣 (TW352),丽都湾 (TW352),LIDO BEACH (TW352),22.367866,114.07436
53,O,1,62,2D36E1CF8C4FF699,汀九 (TW353),汀九 (TW353),TING KAU (TW353),22.370444,114.079344
53,O,1,63,8316A5C8798768AF,南山游泳會 (TW356),南山游泳会 (TW356),SOUTH MOUNTAIN SWIMMING ASSOCIATION (TW356),22.368788,114.083875
53,O,1,64,96D0ED04D761DBE4,金麗苑 (TW358),金丽苑 (TW358),GOLDEN VILLA (TW358),22.367866,114.091415
53,O,1,65,B069D9C12F89AAFA,油柑頭 (TW360),油柑头 (TW360),YAU KOM TAU (TW360),22.368222,114.092191
53,O,1,66,E5763322877BB340,翠景臺 (TW361),翠景台 (TW361),GREENVIEW TERRACE (TW361),22.368511,114.096612
53,O,1,67,48769F0B9F6E6C1B,灣景花園 (TW363),湾景花园 (TW363),BAYVIEW GARDEN (TW363),22.369262,114.099514
53,O,1,68,93F4EA3D82B33BEF,麗城花園第三期 (TW365),丽城花园第三期 (TW365),BELVEDERE GARDEN PHASE 3 (TW365),22.371767,114.101011
53,O,1,69,3DD784D9B2C30AFC,麗城花園第一期 (TW369),丽城花园第一期 (TW369),BELVEDERE GARDEN PHASE 1 (TW369),22.373295,114.103022
53,O,1,70,D8F172EF79F3414D,荃景圍天橋 (TW373),荃景围天桥 (TW373),TSUEN KING CIRCUIT FLYOVER (TW373),22.375738,114.106898
53,O,1,71,40A0B70767CA3F13,愉景新城 (TW384),愉景新城 (TW384),DISCOVERY PARK (TW384),22.374967,114.113022
53,O,1,72,4BDF62F2A7C32429,荃灣站 (TW466),荃湾站 (TW466),TSUEN WAN STATION (TW466),22.374335,114.116164
53,O,1,73,01642BC44DCFDB3C,荃灣大河道 (TW292),荃湾大河道 (TW292),TAI HO ROAD TSUEN WAN (TW292),22.3716,114.115525
53,O,1,74,DD50060EDE7AC79A,如心廣場巴士總站 (落客站),如心广场巴士总站 (落客站),NINA TOWER BUS TERMINUS (ALIGHTING STOP) (TW951),22.368208,114.11249
53,I,1,1,1947D8C8C82DF750,如心廣場巴士總站 (TW950),如心广场巴士总站 (TW950),NINA TOWER BUS TERMINUS (TW950),22.368208,114.11249
53,I,1,2,003D1263A14908F6,荃灣富華街 (TW143),荃湾富华街 (TW143),FU WAH STREET TSUEN WAN (TW143),22.373543,114.115723
53,I,1,3,2E1348C8174BDE09,荃景圍天橋 (TW157),荃景围天桥 (TW157),TSUEN KING CIRCUIT FLYOVER (TW157),22.375396,114.108571
53,I,1,4,5FB1FCAF80F3D97D,荃灣柴灣角街 (TW160),荃湾柴湾角街 (TW160),CHAI WAN KOK STREET TSUEN WAN (TW160),22.374766,114.105738
53,I,1,5,9CD69A8A588B2F8D,麗城花園第三期 (TW168),丽城花园第三期 (TW168),BELVEDERE GARDEN PHASE 3 (TW168),22.371156,114.102375
53,I,1,6,613A21BCEF50485D,灣景花園 (TW170),湾景花园 (TW170),BAYVIEW GARDEN (TW170),22.369482,114.100274
53,I,1,7,122BF72E5DBAEFC0,翠景臺 (TW172),翠景台 (TW172),GREENVIEW TERRACE (TW172),22.368271,114.09751
53,I,1,8,C3009421E5B89EB0,油柑頭 (TW175),油柑头 (TW175),YAU KOM TAU (TW175),22.368158,114.093487
53,I,1,9,222694615BD60A65,近水灣 (TW177),近水湾 (TW177),APPROACH BEACH (TW177),22.367554,114.088408
53,I,1,10,E182FE2A3C62252F,南山游泳會 (TW178),南山游泳会 (TW178),SOUTH MOUNTAIN SWIMMING ASSOCIATION (TW178),22.368146,114.084788
53,I,1,11,AEA60911096D770F,汀九 (TW180),汀九 (TW180),TING KAU (TW180),22.370222,114.079601
53,I,1,12,BC68B9C32B4267AB,麗都灣 (TW183),丽都湾 (TW183),LIDO BEACH (TW183),22.368283,114.07561
53,I,1,13,62AA23787294A36E,海美灣 (TW185),海美湾 (TW185),HOI MEI BEACH (TW185),22.36443,114.069942
53,I,1,14,7550FEE23DA5615D,深井深慈街 (TW187),深井深慈街 (TW187),SHAM TSZ STREET SHAM TSENG (TW187),22.366847,114.063327
53,I,1,15,B47C12A965D7B481,碧堤半島 (TW188),碧堤半岛 (TW188),BELLAGIO (TW188),22.367546,114.061441
53,I,1,16,5564CE644A0D7DBE,深井村 (TW190),深井村 (TW190),SHAM TSENG VILLAGE (TW190),22.366953,114.059303
53,I,1,17,1E4E9FB5763C3436,馬灣碼頭 (TW192),马湾码头 (TW192),MA WAN PIER (TW192),22.365339,114.056712
53,I,1,18,B5BB97F8CB889AB7,浪翠園第三期 (TW194),浪翠园第三期 (TW194),SEA CREST VILLA PHASE 3 (TW194),22.363686,114.054381
53,I,1,19,9E4653BA0F25F731,浪翠園第四期 (TW196),浪翠园第四期 (TW196),SEA CREST VILLA PHASE 4 (TW196),22.362704,114.05152
53,I,1,20,6A93E2E9F1A3F421,青龍頭村 (TW198),青龙头村 (TW198),TSING LUNG TAU TSUEN (TW198),22.360935,114.047472
53,I,1,21,3F41CA34634CC20C,豪景花園 (TW199),豪景花园 (TW199),HONG KONG GARDEN (TW199),22.361452,114.044662
53,I,1,22,2E1127BAF33B34F7,豪景花園商場 (TW200),豪景花园商场 (TW200),HONG KONG GARDEN COMMERCIAL COMPLEX (TW200),22.360969,114.043178
53,I,1,23,DD5FAAA2F84021B6,御天峰 (TW201),御天峰 (TW201),VISTACLIFF (TW201),22.36058,114.042321
53,I,1,24,A1E562738B441036,御海峰 (TW202),御海峰 (TW202),VISTACOVE (TW202),22.357618,114.036355
53,I,1,25,8233DD25DE47FDF0,嘉龍村 (TW203),嘉龙村 (TW203),KA LOON TSUEN (TW203),22.356654,114.033308
53,I,1,26,C1590716F6FABC50,屯門公路轉車站 (C5) (TM110),屯门公路转车站 (C5) (TM110),TUEN MUN ROAD BBI (C5) (TM110),22.358581,114.018476
53,I,1,27,3CCF4F6EA48CF505,大欖涌 (TM205),大榄涌 (TM205),TAI LAM CHUNG (TM205),22.362353,114.019009
53,I,1,28,7AECAF57AF679EE7,小欖 (TM206),小榄 (TM206),SIU LAM (TM206),22.363772,114.015478
53,I,1,29,116624D40FDE852C,小欖澄麗路 (TM207),小榄澄丽路 (TM207),CHING LAI ROAD SIU LAM (TM207),22.365731,114.012346
53,I,1,30,DA8B258D68133BDD,小欖村 (TM209),小榄村 (TM209),SIU LAM TSUEN (TM209),22.366356,114.008976
53,I,1,31,75DEBB78067301B8,小欖新村 (TM211),小榄新村 (TM211),SIU LAM SAN TSUEN (TM211),22.366021,114.005509
53,I,1,32,D4CE0ED4DF009B66,愛琴灣 (TM213),爱琴湾 (TM213),THE AEGEAN (TM213),22.366375,114.001519
53,I,1,33,B714B480F96C22D5,小秀上村 (TM215),小秀上村 (TM215),SIU SAU SHEUNG TSUEN (TM215),22.36799,113.999265
53,I,1,34,531B557CFBFFD232,龍珠島 (TM217),龙珠岛 (TM217),PEARL ISLAND (TM217),22.367917,113.996286
53,I,1,35,F626C47C1F73E1AE,香港黃金海岸 (TM219),香港黄金海岸 (TM219),HONG KONG GOLD COAST (TM219),22.371209,113.993965
53,I,1,36,813A44129E51981F,黃金泳灘 (TM221),黄金泳滩 (TM221),GOLDEN BEACH (TM221),22.373454,113.991954
53,I,1,37,8972CD96C0B11BB2,咖啡灣 (TM224),咖啡湾 (TM224),CAFETERIA BEACH (TM224),22.374662,113.986898
53,I,1,38,4AA82FE086BA80FD,碧翠花園 (TM226),碧翠花园 (TM226),BAYVIEW TERRACE (TM226),22.377758,113.983419
53,I,1,39,3410D9B6EF36D674,青山灣碼頭 (TM228),青山湾码头 (TM228),CASTLE PEAK PIER (TM228),22.37881,113.980728
53,I,1,40,9D88EE061FF5E1D0,三聖邨 (TM230),三圣邨 (TM230),SAM SHING ESTATE (TM230),22.381267,113.979047
53,I,1,41,3F0C9DF601178557,屯門兆麟政府綜合大樓 (TM237),屯门兆麟政府综合大楼 (TM237),TUEN MUN SIU LUN GOVERNMENT COMPLEX (TM237),22.383808,113.979524
53,I,1,42,2BD0ACE05ADB9AD1,青善遊樂場 (TM238),青善游乐场 (TM238),TSING SIN PLAYGROUND (TM238),22.384515,113.980545
53,I,1,43,459BE083B86A8337,置樂花園 (TM240),置乐花园 (TM240),CHI LOK FA YUEN (TM240),22.387441,113.980613
53,I,1,44,CD4626E2F32FE372,華都花園 (TM242),华都花园 (TM242),WALDORF GARDEN (TM242),22.393068,113.978448
53,I,1,45,25E34120CA3AD554,何福堂書院 (TM243),何福堂书院 (TM243),HOH FUK TONG COLLEGE (TM243),22.396131,113.977397
53,I,1,46,6D9EB45795E40B40,庇護工場 (TM244),庇护工场 (TM244),SHELTERED WORKSHOP (TM244),22.398784,113.977208
53,I,1,47,02824AAFC038FA20,景峰花園 (TM246),景峰花园 (TM246),PRIME VIEW GARDEN (TM246),22.403104,113.979138
53,I,1,48,0FB4AEA370913FD2,屯門醫院(鳳地站) (TM248),屯门医院(凤地站) (TM248),TUEN MUN HOSPITAL (FUNG TEI STATION) (TM248),22.406982,113.978597
53,I,1,49,78B3C90A0D7DDDE3,彩暉花園 (TM250),彩晖花园 (TM250),BRILLIANT GARDEN (TM250),22.408784,113.980329
53,I,1,50,E2AE7A37634C8FE5,嶺南大學 (TM251),岭南大学 (TM251),LINGNAN UNIVERSITY (TM251),22.410069,113.982148
53,I,1,51,B954B8082D1AA9B0,富泰邨 (TM254),富泰邨 (TM254),FU TAI ESTATE (TM254),22.412935,113.982196
53,I,1,52,7FE552E3792C9047,藍地站 (TM340),蓝地站 (TM340),LAM TEI STATION (TM340),22.418158,113.981936
53,I,1,53,5587F6CBEF8C74F1,青磚圍 (TM342),青砖围 (TM342),TSING CHUEN WAI (TM342),22.422507,113.985394
53,I,1,54,468DB19F9ECA7507,泥圍站 (TM344),泥围站 (TM344),NAI WAI STATION (TM344),22.423445,113.98627
53,I,1,55,030A0F57C577B5EA,亦園村 (TM346),亦园村 (TM346),YICK YUEN TSUEN (TM346),22.426616,113.989202
53,I,1,56,F1A6B3410C090751,鍾屋村站 (TM348),钟屋村站 (TM348),CHUNG UK TSUEN STATION (TM348),22.429686,113.992324
53,I,1,57,FFF1B4F48E111EAD,鄉事委員會 (YL100),乡事委员会 (YL100),RURAL COMMITTEE (YL100),22.431571,113.992738
53,I,1,58,9E20691A113722DB,田心 (YL101),田心 (YL101),TIN SUM (YL101),22.43436,113.992572
53,I,1,59,AF639F3CE03AAC5C,新李屋村 (YL102),新李屋村 (YL102),SAN LEE UK TSUEN (YL102),22.436541,113.991824
53,I,1,60,FF6FB7F4F33970EE,新生村 (YL103),新生村 (YL103),SAN SANG TSUEN (YL103),22.43963,113.991575
53,I,1,61,F6B47B35803AF5BB,李屋村 (YL104),李屋村 (YL104),LEE UK TSUEN (YL104),22.443604,113.99131
53,I,1,62,0C06F98AD1401CF1,新屋村 (YL105),新屋村 (YL105),SAN UK TSUEN (YL105),22.445112,113.992296
53,I,1,63,0BC4AC63EF8204FA,廈村市 (YL106),厦村市 (YL106),HA TSUEN SHI (YL106),22.446289,113.99339
53,I,1,64,F21032FA5045ACE3,廈村 (YL110),厦村 (YL110),HA TSUEN (YL110),22.446652,113.9947
53,I,1,65,1643F733ACE00B8C,沙洲里村 (YL111),沙洲里村 (YL111),SHA CHAU LEI TSUEN (YL111),22.446601,113.996576
53,I,1,66,5CAF0B805C12DDD9,天水圍站 (YL112),天水围站 (YL112),TIN SHUI WAI STATION (YL112),22.446972,114.002893
53,I,1,67,2C0C842FA050B03D,上章圍 (YL114),上章围 (YL114),SHEUNG CHEUNG WAI (YL114),22.445889,114.005093
53,I,1,68,D79CB4C4C66E7DBC,坑尾村 (YL115),坑尾村 (YL115),HANG MEI TSUEN (YL115),22.443861,114.00774
53,I,1,69,2280D10BC985E036,屏山屏興里 (YL116),屏山屏兴里 (YL116),PING HING LANE PING SHAN (YL116),22.443678,114.010197
53,I,1,70,A8482B15AD6E89A3,屏山 (YL355),屏山 (YL355),PING SHAN (YL355),22.442788,114.011942
53,I,1,71,BCC6E5BA6810FED6,水邊圍邨 (YL358),水边围邨 (YL358),SHUI PIN WAI ESTATE (YL358),22.444573,114.019835
53,I,1,72,22D525468860D203,元朗喜利徑 (N6) (YL365),元朗喜利径 (N6) (YL365),HI LEE PATH YUEN LONG (N6) (YL365),22.444662,114.025534
53,I,1,73,445B2A02DB891CA9,元朗谷亭街 (N14) (YL375),元朗谷亭街 (N14) (YL375),KUK TING STREET YUEN LONG (N14) (YL375),22.44458,114.030435
53,I,1,74,65B07713A0DDFF22,元朗 形點 (YL400),元朗 形点 (YL400),YOHO MALL (YUEN LONG) (YL400),22.445065,114.036445
63X,O,1,1,E32E4D117F196CAD,洪水橋(洪福邨)總站 (YL902),洪水桥(洪福邨)总站 (YL902),HUNG SHUI KIU (HUNG FUK ESTATE) BUS TERMINUS,22.436706,113.998677
63X,O,1,2,A856593C105D479B,洪元路洪福邨 (YL586),洪元路洪福邨 (YL586),HUNG FUK ESTATE HUNG YUEN ROAD (YL586),22.437026,113.996724
63X,O,1,3,EF43A73D4C0CC508,洪水橋田心路 (YL590),洪水桥田心路 (YL590),HUNG SHUI KIU TIN SAM ROAD (YL590),22.434627,113.994834
63X,O,1,4,BB4F24A4C6A9B222,田心 (YL625),田心 (YL625),TIN SUM (YL625),22.433621,113.992743
63X,O,1,5,F61DB78CF72DB387,鄉事委員會 (YL626),乡事委员会 (YL626),RURAL COMMITTEE (YL626),22.431445,113.992908
63X,O,1,6,92A09EC9B712A1ED,鍾屋村站 (TM273),钟屋村站 (TM273),CHUNG UK TSUEN STATION (TM273),22.429689,113.992695
63X,O,1,7,4885700825A72F51,亦園村 (TM275),亦园村 (TM275),YICK YUEN TSUEN (TM275),22.426912,113.989881
63X,O,1,8,A1541789F09C89BA,泥圍 (TM277),泥围 (TM277),NAI WAI (TM277),22.423907,113.987079
63X,O,1,9,D073CC71A1B4F79C,福亨村 (TM279),福亨村 (TM279),FUK HANG TSUEN (TM279),22.422574,113.985749
63X,O,1,10,B64EEA7F564C7853,妙法寺 (TM281),妙法寺 (TM281),MIU FAT BUDDHIST MONASTERY (TM281),22.420492,113.983893
63X,O,1,11,46D1A9FD1F84CA5C,藍地站 (TM284),蓝地站 (TM284),LAM TEI STATION (TM284),22.418325,113.982282
63X,O,1,12,BDD49A91FF705B42,虎地 (TM700),虎地 (TM700),FU TEI (TM700),22.413423,113.980436
63X,O,1,13,2FD7EBBD4AF78A93,紅橋 (K2) (TM713),红桥 (K2) (TM713),HUNG KIU (K2) (TM713),22.402117,113.977486
63X,O,1,14,CBBF3CAABD86AC14,屯門屯仁街 (TM717),屯门屯仁街 (TM717),TUEN YAN STREET TUEN MUN (TM717),22.394154,113.977089
63X,O,1,15,C2787E27F82716BF,華都花園 (TM721),华都花园 (TM721),WALDORF GARDEN (TM721),22.391762,113.977754
63X,O,1,16,376C4835851621D4,屯門公路轉車站 (A15) (TM750),屯门公路转车站 (A15) (TM750),TUEN MUN ROAD BBI (A15) (TM750),22.362928,114.015522
63X,O,1,17,21FC719DAF5F9D28,屯門公路轉車站 (A3) (TM756),屯门公路转车站 (A3) (TM756),TUEN MUN ROAD BBI (A3) (TM756),22.362365,114.016082
63X,O,1,18,F36F422FDC6B9D3F,葵涌交滙處 (KW465),葵涌交滙处 (KW465),KWAI CHUNG INTERCHANGE (KW465),22.33964,114.132619
63X,O,1,19,972145F4BB2B535F,美孚轉車站 (D1) (SS461),美孚转车站 (D1) (SS461),MEI FOO BBI (D1) (SS461),22.33746,114.140547
63X,O,1,20,6C1C752975B8A257,旺角鴉蘭街 (MK650),旺角鸦兰街 (MK650),ARRAN STREET MONG KOK (MK650),22.323361,114.167408
63X,O,1,21,783CE18C333C6069,旺角站S13旺角中心 (MK512),旺角站S13旺角中心 (MK512),"MONG KOK STATION (S13), ARGYLE CENTRE (MK512)",22.319834,114.169353
63X,O,1,22,C0AA7F3501EFA657,旺角登打士街 (S25) (MK524),旺角登打士街 (S25) (MK524),DUNDAS STREET MONG KOK (S25) (MK524),22.314939,114.170396
63X,O,1,23,9DDE74BD2D803D9C,加士居道 (S39) (YT548),加士居道 (S39) (YT548),GASCOIGNE ROAD (S39) (YT548),22.30888,114.17141
63X,O,1,24,2F165341B07CBDB9,吳松街 廟街夜市 (YT672),吴松街 庙街夜市 (YT672),"WOOSUNG STREET, TEMPLE STREET NIGHT MARKET (YT672)",22.305229,114.169912
63X,O,1,25,FD1B403FD4EC3E8D,佐敦炮台街 (YT674),佐敦炮台街 (YT674),BATTERY STREET JORDAN (YT674),22.305617,114.168054
63X,O,1,26,E1DA8EB2EA9A4B3C,佐敦(西九龍站)巴士總站 (YT953),佐敦(西九龙站)巴士总站 (YT953),JORDAN (WEST KOWLOON STATION) BUS TERMINUS (YT953),22.30755,114.164551
63X,I,1,1,E1DA8EB2EA9A4B3C,佐敦(西九龍站)巴士總站 (YT953),佐敦(西九龙站)巴士总站 (YT953),JORDAN (WEST KOWLOON STATION) BUS TERMINUS (YT953),22.30755,114.164551
63X,I,1,2,457F82CA73DB77ED,西九龍站 (YT241),西九龙站 (YT241),WEST KOWLOON STATION (YT241),22.30618,114.166315
63X,I,1,3,1032583A59C3521F,佐敦廟街 (YT247),佐敦庙街 (YT247),TEMPLE STREET JORDAN (YT247),22.305449,114.169912
63X,I,1,4,0E9F8B5A3734D9CE,油麻地寧波街 (N27) (YT126),油麻地宁波街 (N27) (YT126),NING PO STREET YAU MA TEI (N27) (YT126),22.306759,114.17139
63X,I,1,5,B046BFB6CCD3E7CE,九龍中央郵政局 (N34) (YT133),九龙中央邮政局 (N34) (YT133),KOWLOON CENTRAL POST OFFICE (N34) (YT133),22.309296,114.171138
63X,I,1,6,FC46B100B69573B7,油麻地碧街 (N46) (YT145),油麻地碧街 (N46) (YT145),PITT STREET YAU MA TEI (N46) (YT145),22.313535,114.170398
63X,I,1,7,4A1CFF0BEA83DE78,旺角豉油街 (N54) (MK163),旺角豉油街 (N54) (MK163),SOY STREET MONG KOK (N54) (MK163),22.316266,114.169865
63X,I,1,8,221A18C37331E6FD,旺角奶路臣街 (N65) (MK174),旺角奶路臣街 (N65) (MK174),NELSON STREET MONG KOK (N65) (MK174),22.318521,114.169408
63X,I,1,9,7ADC6D521E6BECE6,旺角街市 (MK626),旺角街市 (MK626),MONGKOK MARKET COMPLEX (MK626),22.318792,114.167024
63X,I,1,10,6E764374E3F36BBB,銘基書院 (MK630),铭基书院 (MK630),MING KEI COLLEGE (MK630),22.318559,114.164958
63X,I,1,11,950140C36BBC6369,美孚轉車站 (B2) (SS320),美孚转车站 (B2) (SS320),MEI FOO BBI (B2) (SS320),22.336454,114.141467
63X,I,1,12,62742CFBA2BE9854,葵涌交滙處 (KW100),葵涌交滙处 (KW100),KWAI CHUNG INTERCHANGE (KW100),22.340597,114.131524
63X,I,1,13,0269A1F9D98C737E,屯門公路轉車站 (B7) (TM101),屯门公路转车站 (B7) (TM101),TUEN MUN ROAD BBI (B7) (TM101),22.357963,114.019242
63X,I,1,14,872110C8ADA14DA1,屯門公路轉車站 (B1) (TM107),屯门公路转车站 (B1) (TM107),TUEN MUN ROAD BBI (B1) (TM107),22.35872,114.018548
63X,I,1,15,F26CC0CB9587F2F9,屯門大會堂 (TM120),屯门大会堂 (TM120),TUEN MUN TOWN HALL (TM120),22.391927,113.977165
63X,I,1,16,7AC6625D894BA101,新墟街市 (TM130),新墟街市 (TM130),SAN HUI MARKET (TM130),22.398858,113.976525
63X,I,1,17,CBE54DB551C24A02,紅橋 (TM133),红桥 (TM133),HUNG KIU (TM133),22.402437,113.977155
63X,I,1,18,EC225F6F55BFA35E,虎地 (TM151),虎地 (TM151),FU TEI (TM151),22.412962,113.979772
63X,I,1,19,7FE552E3792C9047,藍地站 (TM340),蓝地站 (TM340),LAM TEI STATION (TM340),22.418158,113.981936
63X,I,1,20,5587F6CBEF8C74F1,青磚圍 (TM342),青砖围 (TM342),TSING CHUEN WAI (TM342),22.422507,113.985394
63X,I,1,21,468DB19F9ECA7507,泥圍站 (TM344),泥围站 (TM344),NAI WAI STATION (TM344),22.423445,113.98627
63X,I,1,22,030A0F57C577B5EA,亦園村 (TM346),亦园村 (TM346),YICK YUEN TSUEN (TM346),22.426616,113.989202
63X,I,1,23,F1A6B3410C090751,鍾屋村站 (TM348),钟屋村站 (TM348),CHUNG UK TSUEN STATION (TM348),22.429686,113.992324
63X,I,1,24,FFF1B4F48E111EAD,鄉事委員會 (YL100),乡事委员会 (YL100),RURAL COMMITTEE (YL100),22.431571,113.992738
63X,I,1,25,87BCEC3D8C6951B2,洪水橋田心路 (YL120),洪水桥田心路 (YL120),HUNG SHUI KIU TIN SAM ROAD (YL120),22.434723,113.994736
63X,I,1,26,E32E4D117F196CAD,洪水橋(洪福邨)總站 (YL902),洪水桥(洪福邨)总站 (YL902),HUNG SHUI KIU (HUNG FUK ESTATE) BUS TERMINUS,22.436706,113.998677
68A,O,1,1,FB45F1DF1EDB66FB,朗屏邨總站 (YL920),朗屏邨总站 (YL920),LONG PING ESTATE BUS TERMINUS (YL920),22.450544,114.022894
68A,O,1,2,0D98A0E934584FD0,香港家庭計劃指導會 (YL220),香港家庭计划指导会 (YL220),THE FAMILY PLANNING ASSOCIATION OF HK (YL220),22.445861,114.022618
68A,O,1,3,A010FE2C473103A8,水邊村 (YL259),水边村 (YL259),SHUI PIN TSUEN (YL259),22.444444,114.021349
68A,O,1,4,70FEB409760C77EE,元朗公園 (YL261),元朗公园 (YL261),YUEN LONG PARK (YL261),22.444092,114.018874
68A,O,1,5,A1A1B10F5CE291AC,朗邊 (YL263),朗边 (YL263),LONG BIN (YL263),22.443219,114.014384
68A,O,1,6,A2C36DF7152EE93F,屏山 (YL264),屏山 (YL264),PING SHAN (YL264),22.441742,114.010416
68A,O,1,7,60A4F4A41CD61FAC,新起村 (YL265),新起村 (YL265),SAN HEI TSUEN (YL265),22.440132,114.007698
68A,O,1,8,8F6C8CEB9F17D97D,灰沙圍 (YL266),灰沙围 (YL266),FUI SHA WAI (YL266),22.438792,114.005593
68A,O,1,9,B09E18636F184247,大道村 (YL267),大道村 (YL267),TAI TAO TSUEN (YL267),22.436581,114.002063
68A,O,1,10,2FA997A1BE419A52,洪天路洪福邨 (YL582),洪天路洪福邨 (YL582),HUNG FUK ESTATE HUNG TIN ROAD (YL582),22.437614,113.998962
68A,O,1,11,5FCE752FBBAB3B14,尚城 (YL269),尚城 (YL269),UPTOWN (YL269),22.435412,114.000373
68A,O,1,12,8FA8E142E834CB7C,洪水橋站 (YL270),洪水桥站 (YL270),HUNG SHUI KIU STATION (YL270),22.433635,113.997883
68A,O,1,13,92A09EC9B712A1ED,鍾屋村站 (TM273),钟屋村站 (TM273),CHUNG UK TSUEN STATION (TM273),22.429689,113.992695
68A,O,1,14,4885700825A72F51,亦園村 (TM275),亦园村 (TM275),YICK YUEN TSUEN (TM275),22.426912,113.989881
68A,O,1,15,A1541789F09C89BA,泥圍 (TM277),泥围 (TM277),NAI WAI (TM277),22.423907,113.987079
68A,O,1,16,D073CC71A1B4F79C,福亨村 (TM279),福亨村 (TM279),FUK HANG TSUEN (TM279),22.422574,113.985749
68A,O,1,17,B64EEA7F564C7853,妙法寺 (TM281),妙法寺 (TM281),MIU FAT BUDDHIST MONASTERY (TM281),22.420492,113.983893
68A,O,1,18,46D1A9FD1F84CA5C,藍地站 (TM284),蓝地站 (TM284),LAM TEI STATION (TM284),22.418325,113.982282
68A,O,1,19,BDD49A91FF705B42,虎地 (TM700),虎地 (TM700),FU TEI (TM700),22.413423,113.980436
68A,O,1,20,8C32D9DDB85891A6,紅橋 (K4) (TM711),红桥 (K4) (TM711),HUNG KIU (K4) (TM711),22.401816,113.977423
68A,O,1,21,8121695666A4D9CE,屯門屯仁街 (TM718),屯门屯仁街 (TM718),TUEN YAN STREET TUEN MUN (TM718),22.394185,113.977084
68A,O,1,22,8081C7B2F395A6D0,華都花園 (TM723),华都花园 (TM723),WALDORF GARDEN (TM723),22.391695,113.977782
68A,O,1,23,376C4835851621D4,屯門公路轉車站 (A15) (TM750),屯门公路转车站 (A15) (TM750),TUEN MUN ROAD BBI (A15) (TM750),22.362928,114.015522
68A,O,1,24,ACB5FEA2BF9FC5AD,屯門公路轉車站 (A4) (TM755),屯门公路转车站 (A4) (TM755),TUEN MUN ROAD BBI (A4) (TM755),22.362444,114.015978
68A,O,1,25,ED364A58F885DC92,荃景圍天橋 (TW378),荃景围天桥 (TW378),TSUEN KING CIRCUIT FLYOVER (TW378),22.375761,114.107956
68A,O,1,26,D6C06E7091666AB4,愉景新城 (TW383),愉景新城 (TW383),DISCOVERY PARK (TW383),22.374994,114.112969
68A,O,1,27,85B0E39398B91605,荃灣站 (TW385),荃湾站 (TW385),TSUEN WAN STATION (TW385),22.37412,114.115025
68A,O,1,28,2D33D39F61B74C5D,荃灣眾安街 (TW388),荃湾众安街 (TW388),CHUNG ON STREET TSUEN WAN (TW388),22.372563,114.11828
68A,O,1,29,C9E264A3F9D4CEB3,大窩口轉車站 -大窩口站 (A1),大窝口转车站 -大窝口站 (A1),TAI WO HAU BBI -TAI WO HAU STATION(A1) (KW394),22.370561,114.123847
68A,O,1,30,6E22023A7DF1B381,青衣轉車站 –灝景灣 (D1),青衣转车站 –灏景湾 (D1),TSING YI BBI - VILLA ESPLANADA (D1) (TY201),22.360898,114.105955
68A,O,1,31,E45E7DB1786B6324,青衣站(落客站) (TY920),青衣站(落客站) (TY920),TSING YI STATION(Alighting) (TY920),22.359924,114.107953
68A,I,1,1,A39682B5A68D668F,青衣站 (TY928),青衣站 (TY928),TSING YI STATION (TY928),22.360296,114.107429
68A,I,1,2,AFC36FC71B4E124E,青衣轉車站 -長安邨安湄樓 (B1),青衣转车站 -长安邨安湄楼 (B1),TSING YI BBI - ON MEI HOUSE CHEUNG ON ESTATE (B1),22.361152,114.105286
68A,I,1,3,F3432DFEDE7E7AA0,荃富街公園 (TW596),荃富街公园 (TW596),TSUEN FU STREET GARDEN (TW596),22.368882,114.121794
68A,I,1,4,87668BC629020844,荃灣眾安街 (TW136),荃湾众安街 (TW136),CHUNG ON STREET TSUEN WAN (TW136),22.371286,114.119159
68A,I,1,5,0115F5FC6A7772C3,福來邨永樂樓 (TW149),福来邨永乐楼 (TW149),WING LOK HOUSE FUK LOI ESTATE (TW149),22.373911,114.114831
68A,I,1,6,E78E2B8A6B0251F4,荃景圍天橋 (TW154),荃景围天桥 (TW154),TSUEN KING CIRCUIT FLYOVER (TW154),22.375401,114.109078
68A,I,1,7,DFE346B2C7332BC0,屯門公路轉車站 (B6) (TM102),屯门公路转车站 (B6) (TM102),TUEN MUN ROAD BBI (B6) (TM102),22.358063,114.019164
68A,I,1,8,872110C8ADA14DA1,屯門公路轉車站 (B1) (TM107),屯门公路转车站 (B1) (TM107),TUEN MUN ROAD BBI (B1) (TM107),22.35872,114.018548
68A,I,1,9,F26CC0CB9587F2F9,屯門大會堂 (TM120),屯门大会堂 (TM120),TUEN MUN TOWN HALL (TM120),22.391927,113.977165
68A,I,1,10,7AC6625D894BA101,新墟街市 (TM130),新墟街市 (TM130),SAN HUI MARKET (TM130),22.398858,113.976525
68A,I,1,11,CBE54DB551C24A02,紅橋 (TM133),红桥 (TM133),HUNG KIU (TM133),22.402437,113.977155
68A,I,1,12,EC225F6F55BFA35E,虎地 (TM151),虎地 (TM151),FU TEI (TM151),22.412962,113.979772
68A,I,1,13,7FE552E3792C9047,藍地站 (TM340),蓝地站 (TM340),LAM TEI STATION (TM340),22.418158,113.981936
68A,I,1,14,5587F6CBEF8C74F1,青磚圍 (TM342),青砖围 (TM342),TSING CHUEN WAI (TM342),22.422507,113.985394
68A,I,1,15,468DB19F9ECA7507,泥圍站 (TM344),泥围站 (TM344),NAI WAI STATION (TM344),22.423445,113.98627
68A,I,1,16,030A0F57C577B5EA,亦園村 (TM346),亦园村 (TM346),YICK YUEN TSUEN (TM346),22.426616,113.989202
68A,I,1,17,F1A6B3410C090751,鍾屋村站 (TM348),钟屋村站 (TM348),CHUNG UK TSUEN STATION (TM348),22.429686,113.992324
68A,I,1,18,0BFC5F7FC4A2D431,洪水橋站 (YL350),洪水桥站 (YL350),HUNG SHUI KIU STATION (YL350),22.43388,113.997787
68A,I,1,19,AC1A0FA3D0743FCC,洪天路洪福邨 (YL580),洪天路洪福邨 (YL580),HUNG FUK ESTATE HUNG TIN ROAD (YL580),22.437614,113.998962
68A,I,1,20,5F616585205DDDF9,大道村 (YL352),大道村 (YL352),TAI TAO TSUEN (YL352),22.43634,114.001273
68A,I,1,21,147D513A708AA741,灰沙圍 (YL353),灰沙围 (YL353),FUI SHA WAI (YL353),22.438957,114.005297
68A,I,1,22,B88640E0CA83F12C,塘坊村站 (YL354),塘坊村站 (YL354),TONG FONG TSUEN STATION (YL354),22.439816,114.006851
68A,I,1,23,A8482B15AD6E89A3,屏山 (YL355),屏山 (YL355),PING SHAN (YL355),22.442788,114.011942
68A,I,1,24,6A435795576D92E8,朗庭園 (YL356),朗庭园 (YL356),VILLA BY THE PARK (YL356),22.444345,114.018502
68A,I,1,25,6E85D42922E5A10C,元朗廣場 (N1) (YL359),元朗广场 (N1) (YL359),YUEN LONG PLAZA (N1) (YL359),22.444678,114.023992
68A,I,1,26,6723518D536070AB,朗屏邨悅屏樓 (YL142),朗屏邨悦屏楼 (YL142),YUET PING HOUSE LONG PING ESTATE (YL142),22.447786,114.022971
68A,I,1,27,0CF8C59B80E70369,朗屏邨珠屏樓 (YL150),朗屏邨珠屏楼 (YL150),CHU PING HOUSE LONG PING ESTATE (YL150),22.451349,114.025322
68A,I,1,28,76DD0B50D30CF140,朗屏邨總站 (YL923),朗屏邨总站 (YL923),LONG PING ESTATE BUS TERMINUS (YL923),22.450969,114.023033
68A,I,1,29,FB45F1DF1EDB66FB,朗屏邨總站 (YL920),朗屏邨总站 (YL920),LONG PING ESTATE BUS TERMINUS (YL920),22.450544,114.022894
258A,O,1,1,55E3A1A6E995A9CB,洪水橋(洪福邨)總站 (YL903),洪水桥(洪福邨)总站 (YL903),HUNG SHUI KIU (HUNG FUK ESTATE) BUS TERMINUS,22.436706,113.998677
258A,O,1,2,EF43A73D4C0CC508,洪水橋田心路 (YL590),洪水桥田心路 (YL590),HUNG SHUI KIU TIN SAM ROAD (YL590),22.434627,113.994834
258A,O,1,3,BB4F24A4C6A9B222,田心 (YL625),田心 (YL625),TIN SUM (YL625),22.433621,113.992743
258A,O,1,4,F61DB78CF72DB387,鄉事委員會 (YL626),乡事委员会 (YL626),RURAL COMMITTEE (YL626),22.431445,113.992908
258A,O,1,5,92A09EC9B712A1ED,鍾屋村站 (TM273),钟屋村站 (TM273),CHUNG UK TSUEN STATION (TM273),22.429689,113.992695
258A,O,1,6,4885700825A72F51,亦園村 (TM275),亦园村 (TM275),YICK YUEN TSUEN (TM275),22.426912,113.989881
258A,O,1,7,A1541789F09C89BA,泥圍 (TM277),泥围 (TM277),NAI WAI (TM277),22.423907,113.987079
258A,O,1,8,D073CC71A1B4F79C,福亨村 (TM279),福亨村 (TM279),FUK HANG TSUEN (TM279),22.422574,113.985749
258A,O,1,9,B64EEA7F564C7853,妙法寺 (TM281),妙法寺 (TM281),MIU FAT BUDDHIST MONASTERY (TM281),22.420492,113.983893
258A,O,1,10,46D1A9FD1F84CA5C,藍地站 (TM284),蓝地站 (TM284),LAM TEI STATION (TM284),22.418325,113.982282
258A,O,1,11,BDD49A91FF705B42,虎地 (TM700),虎地 (TM700),FU TEI (TM700),22.413423,113.980436
258A,O,1,12,6FB7BC1E5BC1E4EE,紅橋 (K3) (TM712),红桥 (K3) (TM712),HUNG KIU (K3) (TM712),22.401767,113.977412
258A,O,1,13,CBBF3CAABD86AC14,屯門屯仁街 (TM717),屯门屯仁街 (TM717),TUEN YAN STREET TUEN MUN (TM717),22.394154,113.977089
258A,O,1,14,C2787E27F82716BF,華都花園 (TM721),华都花园 (TM721),WALDORF GARDEN (TM721),22.391762,113.977754
258A,O,1,15,F5A44B89EFBC0B4F,畢架山花園 (SS190),毕架山花园 (SS190),BEACON HEIGHTS (SS190),22.341687,114.167069
258A,O,1,16,99EF4CA10B3E1F17,豐力樓 (SS192),丰力楼 (SS192),PHOENIX HOUSE (SS192),22.34314,114.172841
258A,O,1,17,C847B9021C407731,龍翔官立中學 (WT201),龙翔官立中学 (WT201),LUNG CHEUNG GOVT. SEC. SCHOOL (WT201),22.342366,114.189837
258A,O,1,18,5536C9E3A0CE1228,黃大仙轉車站 - 黃大仙廟 (B6),黄大仙转车站 - 黄大仙庙 (B6),WONG TAI SIN BBI - WONG TAI SIN TEMPLE (B6),22.341855,114.1921
258A,O,1,19,A15FFC3149FB92A0,黃大仙轉車站 - 沙田坳道 (A2),黄大仙转车站 - 沙田坳道 (A2),WONG TAI SIN BBI - SHATIN PASS ROAD (A2) (WT209),22.341856,114.195204
258A,O,1,20,5D1E6432755E4F5F,新蒲崗四美街 (WT332),新蒲岗四美街 (WT332),"SZE MEI STREET, SAN PO KONG (WT332)",22.338682,114.200734
258A,O,1,21,D80313EC29620E1D,彩虹轉車站 - 碧海樓 (M5),彩虹转车站 - 碧海楼 (M5),CHOI HUNG BBI - PIK HOI HOUSE (M5) (WT344),22.335577,114.204862
258A,O,1,22,BA03816A38B9DA7F,啟業邨 (KT315),启业邨 (KT315),KAI YIP ESTATE (KT315),22.330268,114.210894
258A,O,1,23,D0F8772D043C207E,九龍灣站(東九文化中心) (KT321),九龙湾站(东九文化中心) (KT321),KOWLOON BAY STATION (EKCC) (KT321),22.323713,114.214493
258A,O,1,24,E5E15C5F7F0344AB,牛頭角下邨 (KT327),牛头角下邨 (KT327),LOWER NGAU TAU KOK ESTATE (KT327),22.32146,114.214662
258A,O,1,25,598F766175BE3EF3,觀塘道休憩處 (KT329),观塘道休憩处 (KT329),KWUN TONG ROAD SITTING-OUT AREA (KT329),22.318159,114.21507
258A,O,1,26,5FE12AC5660F89D6,觀塘轉車站 - 創紀之城 (U1),观塘转车站 - 创纪之城 (U1),KWUN TONG BBI - MILLENNIUM CITY (U1) (KT345),22.314009,114.222404
258A,O,1,27,5AAC6A858427D04E,觀塘游泳池 (R3) (KT360),观塘游泳池 (R3) (KT360),KWUN TONG SWIMMING POOL (R3) (KT360),22.310432,114.229545
258A,O,1,28,F36C1B3AC57D96FA,藍田站 (落客站) (LT900),蓝田站 (落客站) (LT900),LAM TIN STATION (ALIGHTING STOP) (LT900),22.30767,114.233509
258P,O,1,1,55E3A1A6E995A9CB,洪水橋(洪福邨)總站 (YL903),洪水桥(洪福邨)总站 (YL903),HUNG SHUI KIU (HUNG FUK ESTATE) BUS TERMINUS,22.436706,113.998677
258P,O,1,2,5FCE752FBBAB3B14,尚城 (YL269),尚城 (YL269),UPTOWN (YL269),22.435412,114.000373
258P,O,1,3,8FA8E142E834CB7C,洪水橋站 (YL270),洪水桥站 (YL270),HUNG SHUI KIU STATION (YL270),22.433635,113.997883
258P,O,1,4,92A09EC9B712A1ED,鍾屋村站 (TM273),钟屋村站 (TM273),CHUNG UK TSUEN STATION (TM273),22.429689,113.992695
258P,O,1,5,4885700825A72F51,亦園村 (TM275),亦园村 (TM275),YICK YUEN TSUEN (TM275),22.426912,113.989881
258P,O,1,6,A1541789F09C89BA,泥圍 (TM277),泥围 (TM277),NAI WAI (TM277),22.423907,113.987079
258P,O,1,7,D073CC71A1B4F79C,福亨村 (TM279),福亨村 (TM279),FUK HANG TSUEN (TM279),22.422574,113.985749
258P,O,1,8,B64EEA7F564C7853,妙法寺 (TM281),妙法寺 (TM281),MIU FAT BUDDHIST MONASTERY (TM281),22.420492,113.983893
258P,O,1,9,46D1A9FD1F84CA5C,藍地站 (TM284),蓝地站 (TM284),LAM TEI STATION (TM284),22.418325,113.982282
258P,O,1,10,2B354AE312900DF1,富泰邨 (TM289),富泰邨 (TM289),FU TAI ESTATE (TM289),22.412603,113.982339
258P,O,1,11,406864EDEB186C9A,聚康山莊 (TM201),聚康山庄 (TM201),BENEVILLE (TM201),22.412123,113.983992
258P,O,1,12,AA5DA45828958EAE,嶺南大學 (TM290),岭南大学 (TM290),LINGNAN UNIVERSITY (TM290),22.409975,113.982404
258P,O,1,13,876057D899CE09C9,彩暉花園 (TM293),彩晖花园 (TM293),BRILLIANT GARDEN (TM293),22.408498,113.980004
258P,O,1,14,50DC968C90CE7CF4,兆康站(南) (TM910),兆康站(南) (TM910),SIU HONG STATION (SOUTH) (TM910),22.410353,113.978215
258P,O,1,15,FA553D19AD960A9B,景峰花園 (TM294),景峰花园 (TM294),PRIME VIEW GARDEN (TM294),22.403003,113.979339
258P,O,1,16,642F7D358D36F715,新圍仔 (TM296),新围仔 (TM296),SAN WAI TSAI (TM296),22.397501,113.97749
258P,O,1,17,F269ACD809D1B43E,何福堂書院 (TM297),何福堂书院 (TM297),HOH FUK TONG COLLEGE (TM297),22.395933,113.977739
258P,O,1,18,68354B780EDFC52B,華都花園 (TM298),华都花园 (TM298),WALDORF GARDEN (TM298),22.392442,113.979209
258P,O,1,19,665CE110A84542E9,屯門官立中學 (TM731),屯门官立中学 (TM731),TUEN MUN GOVERNMENT SECONDARY SCHOOL (TM731),22.390271,113.978679
258P,O,1,20,F5A44B89EFBC0B4F,畢架山花園 (SS190),毕架山花园 (SS190),BEACON HEIGHTS (SS190),22.341687,114.167069
258P,O,1,21,99EF4CA10B3E1F17,豐力樓 (SS192),丰力楼 (SS192),PHOENIX HOUSE (SS192),22.34314,114.172841
258P,O,1,22,C847B9021C407731,龍翔官立中學 (WT201),龙翔官立中学 (WT201),LUNG CHEUNG GOVT. SEC. SCHOOL (WT201),22.342366,114.189837
258P,O,1,23,5536C9E3A0CE1228,黃大仙轉車站 - 黃大仙廟 (B6),黄大仙转车站 - 黄大仙庙 (B6),WONG TAI SIN BBI - WONG TAI SIN TEMPLE (B6),22.341855,114.1921
258P,O,1,24,A15FFC3149FB92A0,黃大仙轉車站 - 沙田坳道 (A2),黄大仙转车站 - 沙田坳道 (A2),WONG TAI SIN BBI - SHATIN PASS ROAD (A2) (WT209),22.341856,114.195204
258P,O,1,25,5D1E6432755E4F5F,新蒲崗四美街 (WT332),新蒲岗四美街 (WT332),"SZE MEI STREET, SAN PO KONG (WT332)",22.338682,114.200734
258P,O,1,26,D80313EC29620E1D,彩虹轉車站 - 碧海樓 (M5),彩虹转车站 - 碧海楼 (M5),CHOI HUNG BBI - PIK HOI HOUSE (M5) (WT344),22.335577,114.204862
258P,O,1,27,BA03816A38B9DA7F,啟業邨 (KT315),启业邨 (KT315),KAI YIP ESTATE (KT315),22.330268,114.210894
258P,O,1,28,D0F8772D043C207E,九龍灣站(東九文化中心) (KT321),九龙湾站(东九文化中心) (KT321),KOWLOON BAY STATION (EKCC) (KT321),22.323713,114.214493
258P,O,1,29,E5E15C5F7F0344AB,牛頭角下邨 (KT327),牛头角下邨 (KT327),LOWER NGAU TAU KOK ESTATE (KT327),22.32146,114.214662
258P,O,1,30,598F766175BE3EF3,觀塘道休憩處 (KT329),观塘道休憩处 (KT329),KWUN TONG ROAD SITTING-OUT AREA (KT329),22.318159,114.21507
258P,O,1,31,5FE12AC5660F89D6,觀塘轉車站 - 創紀之城 (U1),观塘转车站 - 创纪之城 (U1),KWUN TONG BBI - MILLENNIUM CITY (U1) (KT345),22.314009,114.222404
258P,O,1,32,5AAC6A858427D04E,觀塘游泳池 (R3) (KT360),观塘游泳池 (R3) (KT360),KWUN TONG SWIMMING POOL (R3) (KT360),22.310432,114.229545
258P,O,1,33,DA0947682FC19B0B,藍田站 (LT910),蓝田站 (LT910),LAM TIN STATION (LT910),22.306525,114.233772
258P,I,1,1,FBCC3CF2291E526E,藍田站 (LT905),蓝田站 (LT905),LAM TIN STATION (LT905),22.307007,114.233766
258P,I,1,2,25F3EF8ACD865DFB,觀塘法院 (F4) (KT609),观塘法院 (F4) (KT609),KWUN TONG LAW COURTS (F4) (KT609),22.309933,114.229647
258P,I,1,3,478A61BE44E34707,觀塘駿業里 (C2) (KT632),观塘骏业里 (C2) (KT632),"TSUN YIP LANE, KWUN TONG (C2) (KT632)",22.313235,114.223525
258P,I,1,4,9E1F0E5A57F3D3D5,觀塘轉車站 - 牛頭角站 (A2),观塘转车站 - 牛头角站 (A2),KWUN TONG BBI - NGAU TAU KOK STATION (A2) (KT644),22.314696,114.21975
258P,I,1,5,4B17C55C032D3A37,觀塘定富街 (KT650),观塘定富街 (KT650),"TING FU STREET, KWUN TONG (KT650)",22.316726,114.215543
258P,I,1,6,52AE04E9C3E77BE1,牛頭角下邨 (KT654),牛头角下邨 (KT654),LOWER NGAU TAU KOK ESTATE (KT654),22.320039,114.214468
258P,I,1,7,F727B37E25DC4C88,九龍灣站 (KT670),九龙湾站 (KT670),KOWLOON BAY STATION (KT670),22.32454,114.214058
258P,I,1,8,DCC8F8655EB76754,啟泰苑 (KT676),启泰苑 (KT676),KAI TAI COURT (KT676),22.328468,114.212309
258P,I,1,9,AA6F0A2661759A49,牛池灣轉車站 - 丹鳳樓 (J3),牛池湾转车站 - 丹凤楼 (J3),NGAU CHI WAI BBI - TAN FUNG HOUSE (J3) (WT702),22.33536,114.207552
258P,I,1,10,52A8DA8958AFCCA6,鑽石山站 (WT712),钻石山站 (WT712),DIAMOND HILL STATION (WT712),22.339246,114.202191
258P,I,1,11,0EAFBD8737911A6A,黃大仙轉車站 - 黃大仙廟 (D3),黄大仙转车站 - 黄大仙庙 (D3),WONG TAI SIN BBI - WONG TAI SIN TEMPLE (D3),22.341474,114.195481
258P,I,1,12,E435F72ACB8438ED,摩士公園泳池 (WT720),摩士公园泳池 (WT720),MORSE PARK SWIMMING POOL (WT720),22.34157,114.191604
258P,I,1,13,60A445D9ACD40C12,永光書院 (WT723),永光书院 (WT723),WING KWONG COLLEGE (WT723),22.342346,114.188401
258P,I,1,14,118450CCC68E42C6,豐力樓 (SS731),丰力楼 (SS731),PHOENIX HOUSE (SS731),22.342585,114.172991
258P,I,1,15,6AAC8E541D9BD80C,畢架山花園 (SS733),毕架山花园 (SS733),BEACON HEIGHTS (SS733),22.341649,114.166733
258P,I,1,16,1E15CFA82F408124,屯門官立中學 (TM137),屯门官立中学 (TM137),TUEN MUN GOVERNMENT SECONDARY SCHOOL (TM137),22.390507,113.97841
258P,I,1,17,CD4626E2F32FE372,華都花園 (TM242),华都花园 (TM242),WALDORF GARDEN (TM242),22.393068,113.978448
258P,I,1,18,25E34120CA3AD554,何福堂書院 (TM243),何福堂书院 (TM243),HOH FUK TONG COLLEGE (TM243),22.396131,113.977397
258P,I,1,19,6D9EB45795E40B40,庇護工場 (TM244),庇护工场 (TM244),SHELTERED WORKSHOP (TM244),22.398784,113.977208
258P,I,1,20,02824AAFC038FA20,景峰花園 (TM246),景峰花园 (TM246),PRIME VIEW GARDEN (TM246),22.403104,113.979138
258P,I,1,21,0FB4AEA370913FD2,屯門醫院(鳳地站) (TM248),屯门医院(凤地站) (TM248),TUEN MUN HOSPITAL (FUNG TEI STATION) (TM248),22.406982,113.978597
258P,I,1,22,78B3C90A0D7DDDE3,彩暉花園 (TM250),彩晖花园 (TM250),BRILLIANT GARDEN (TM250),22.408784,113.980329
258P,I,1,23,E2AE7A37634C8FE5,嶺南大學 (TM251),岭南大学 (TM251),LINGNAN UNIVERSITY (TM251),22.410069,113.982148
258P,I,1,24,B954B8082D1AA9B0,富泰邨 (TM254),富泰邨 (TM254),FU TAI ESTATE (TM254),22.412935,113.982196
258P,I,1,25,7FE552E3792C9047,藍地站 (TM340),蓝地站 (TM340),LAM TEI STATION (TM340),22.418158,113.981936
258P,I,1,26,5587F6CBEF8C74F1,青磚圍 (TM342),青砖围 (TM342),TSING CHUEN WAI (TM342),22.422507,113.985394
258P,I,1,27,468DB19F9ECA7507,泥圍站 (TM344),泥围站 (TM344),NAI WAI STATION (TM344),22.423445,113.98627
258P,I,1,28,030A0F57C577B5EA,亦園村 (TM346),亦园村 (TM346),YICK YUEN TSUEN (TM346),22.426616,113.989202
258P,I,1,29,F1A6B3410C090751,鍾屋村站 (TM348),钟屋村站 (TM348),CHUNG UK TSUEN STATION (TM348),22.429686,113.992324
258P,I,1,30,0BFC5F7FC4A2D431,洪水橋站 (YL350),洪水桥站 (YL350),HUNG SHUI KIU STATION (YL350),22.43388,113.997787
258P,I,1,31,AC1A0FA3D0743FCC,洪天路洪福邨 (YL580),洪天路洪福邨 (YL580),HUNG FUK ESTATE HUNG TIN ROAD (YL580),22.437614,113.998962
261P,O,1,1,896148008606A47A,兆康苑總站 (TM902),兆康苑总站 (TM902),SIU HONG COURT BUS TERMINUS (TM902),22.414301,113.978906
261P,O,1,2,3199543D3AE70527,五柳路 (TM490),五柳路 (TM490),NG LAU ROAD (TM490),22.415601,113.979372
261P,O,1,3,7FE552E3792C9047,藍地站 (TM340),蓝地站 (TM340),LAM TEI STATION (TM340),22.418158,113.981936
261P,O,1,4,5587F6CBEF8C74F1,青磚圍 (TM342),青砖围 (TM342),TSING CHUEN WAI (TM342),22.422507,113.985394
261P,O,1,5,468DB19F9ECA7507,泥圍站 (TM344),泥围站 (TM344),NAI WAI STATION (TM344),22.423445,113.98627
261P,O,1,6,030A0F57C577B5EA,亦園村 (TM346),亦园村 (TM346),YICK YUEN TSUEN (TM346),22.426616,113.989202
261P,O,1,7,F1A6B3410C090751,鍾屋村站 (TM348),钟屋村站 (TM348),CHUNG UK TSUEN STATION (TM348),22.429686,113.992324
261P,O,1,8,0BFC5F7FC4A2D431,洪水橋站 (YL350),洪水桥站 (YL350),HUNG SHUI KIU STATION (YL350),22.43388,113.997787
261P,O,1,9,AC1A0FA3D0743FCC,洪天路洪福邨 (YL580),洪天路洪福邨 (YL580),HUNG FUK ESTATE HUNG TIN ROAD (YL580),22.437614,113.998962
261P,O,1,10,57E8A522E2C638FD,上水轉車站 - 上水站(B4),上水转车站 - 上水站(B4),SHEUNG SHUI BBI - SHEUNG SHUI STATION(B4) (ND481),22.502052,114.12731
261P,O,1,11,9170FC8FFFD12204,上水新成路 (ND230),上水新成路 (ND230),SAN SHING AVENUE SHEUNG SHUI (ND230),22.50362,114.129768
261P,O,1,12,D2C1DACCC74B69C5,龍琛路體育館 (ND231),龙琛路体育馆 (ND231),LUNG SUM AVENUE SPORTS CENTRE (ND231),22.505047,114.131189
261P,O,1,13,DF0C4F9561000773,天平邨總站 (ND950),天平邨总站 (ND950),TIN PING ESTATE BUS TERMINUS (ND950),22.503533,114.13385
261P,I,1,1,DF0C4F9561000773,天平邨總站 (ND950),天平邨总站 (ND950),TIN PING ESTATE BUS TERMINUS (ND950),22.503533,114.13385
261P,I,1,2,EE775A73D626A46E,天平邨天怡樓 (ND335),天平邨天怡楼 (ND335),TIN YEE HOUSE TIN PING ESTATE (ND335),22.504778,114.131439
261P,I,1,3,D417A444017171C6,龍豐花園 (ND336),龙丰花园 (ND336),LUNG FUNG GARDEN (ND336),22.503073,114.129594
261P,I,1,4,53966A66C3108F4C,上水轉車站 - 上水站(B3),上水转车站 - 上水站(B3),SHEUNG SHUI BBI - SHEUNG SHUI STATION(B3) (ND482),22.502406,114.127082
261P,I,1,5,A856593C105D479B,洪元路洪福邨 (YL586),洪元路洪福邨 (YL586),HUNG FUK ESTATE HUNG YUEN ROAD (YL586),22.437026,113.996724
261P,I,1,6,EF43A73D4C0CC508,洪水橋田心路 (YL590),洪水桥田心路 (YL590),HUNG SHUI KIU TIN SAM ROAD (YL590),22.434627,113.994834
261P,I,1,7,BB4F24A4C6A9B222,田心 (YL625),田心 (YL625),TIN SUM (YL625),22.433621,113.992743
261P,I,1,8,F61DB78CF72DB387,鄉事委員會 (YL626),乡事委员会 (YL626),RURAL COMMITTEE (YL626),22.431445,113.992908
261P,I,1,9,92A09EC9B712A1ED,鍾屋村站 (TM273),钟屋村站 (TM273),CHUNG UK TSUEN STATION (TM273),22.429689,113.992695
261P,I,1,10,4885700825A72F51,亦園村 (TM275),亦园村 (TM275),YICK YUEN TSUEN (TM275),22.426912,113.989881
261P,I,1,11,A1541789F09C89BA,泥圍 (TM277),泥围 (TM277),NAI WAI (TM277),22.423907,113.987079
261P,I,1,12,D073CC71A1B4F79C,福亨村 (TM279),福亨村 (TM279),FUK HANG TSUEN (TM279),22.422574,113.985749
261P,I,1,13,B64EEA7F564C7853,妙法寺 (TM281),妙法寺 (TM281),MIU FAT BUDDHIST MONASTERY (TM281),22.420492,113.983893
261P,I,1,14,46D1A9FD1F84CA5C,藍地站 (TM284),蓝地站 (TM284),LAM TEI STATION (TM284),22.418325,113.982282
261P,I,1,15,E01BD8E1BEC29EA6,五柳路 (TM526),五柳路 (TM526),NG LAU ROAD (TM526),22.415511,113.979679
261P,I,1,16,E16D49ECA536ECC6,兆康路 (TM528),兆康路 (TM528),SIU HONG ROAD (TM528),22.414894,113.977411
261P,I,1,17,896148008606A47A,兆康苑總站 (TM902),兆康苑总站 (TM902),SIU HONG COURT BUS TERMINUS (TM902),22.414301,113.978906
960P,O,1,1,595CE3974AB6F377,洪水橋(洪元路)總站 (YL910),洪水桥(洪元路)总站 (YL910),HUNG SHUI KIU (HUNG YUEN ROAD) BUS TERMINUS,22.43456,113.99829
960P,O,1,2,D0F6D267978B38E3,洪元路洪福邨 (YL125),洪元路洪福邨 (YL125),HUNG FUK ESTATE HUNG YUEN ROAD (YL125),22.43715,113.996592
960P,O,1,3,5FCE752FBBAB3B14,尚城 (YL269),尚城 (YL269),UPTOWN (YL269),22.435412,114.000373
960P,O,1,4,8FA8E142E834CB7C,洪水橋站 (YL270),洪水桥站 (YL270),HUNG SHUI KIU STATION (YL270),22.433635,113.997883
960P,O,1,5,92A09EC9B712A1ED,鍾屋村站 (TM273),钟屋村站 (TM273),CHUNG UK TSUEN STATION (TM273),22.429689,113.992695
960P,O,1,6,4885700825A72F51,亦園村 (TM275),亦园村 (TM275),YICK YUEN TSUEN (TM275),22.426912,113.989881
960P,O,1,7,A1541789F09C89BA,泥圍 (TM277),泥围 (TM277),NAI WAI (TM277),22.423907,113.987079
960P,O,1,8,D073CC71A1B4F79C,福亨村 (TM279),福亨村 (TM279),FUK HANG TSUEN (TM279),22.422574,113.985749
960P,O,1,9,B64EEA7F564C7853,妙法寺 (TM281),妙法寺 (TM281),MIU FAT BUDDHIST MONASTERY (TM281),22.420492,113.983893
960P,O,1,10,46D1A9FD1F84CA5C,藍地站 (TM284),蓝地站 (TM284),LAM TEI STATION (TM284),22.418325,113.982282
960P,O,1,11,BDD49A91FF705B42,虎地 (TM700),虎地 (TM700),FU TEI (TM700),22.413423,113.980436
960P,O,1,12,DD56DC2336C878C1,紅橋 (K1) (TM714),红桥 (K1) (TM714),HUNG KIU (K1) (TM714),22.402117,113.977486
960P,O,1,13,8121695666A4D9CE,屯門屯仁街 (TM718),屯门屯仁街 (TM718),TUEN YAN STREET TUEN MUN (TM718),22.394185,113.977084
960P,O,1,14,C2787E27F82716BF,華都花園 (TM721),华都花园 (TM721),WALDORF GARDEN (TM721),22.391762,113.977754
960P,O,1,15,376C4835851621D4,屯門公路轉車站 (A15) (TM750),屯门公路转车站 (A15) (TM750),TUEN MUN ROAD BBI (A15) (TM750),22.362928,114.015522
960P,O,1,16,ACB5FEA2BF9FC5AD,屯門公路轉車站 (A4) (TM755),屯门公路转车站 (A4) (TM755),TUEN MUN ROAD BBI (A4) (TM755),22.362444,114.015978
960P,O,1,17,72F743E4D464E498,西隧轉車站 (A1) (YT313),西隧转车站 (A1) (YT313),WESTERN HARBOUR TUNNEL BBI (A1) (YT313),22.304288,114.159875
960P,O,1,18,28B264A688848238,港澳碼頭 (CW110),港澳码头 (CW110),MACAU FERRY (CW110),22.288101,114.150185
960P,O,1,19,B8CAE7A1372554AB,中區政府碼頭 (CW125),中区政府码头 (CW125),CENTRAL GOVERNMENT PIER (CW125),22.287398,114.154591
960P,O,1,20,D996531BBC23B44D,中環三號碼頭 (CW126),中环三号码头 (CW126),CENTRAL FERRY PIER NO.3 (CW126),22.287565,114.157409
960P,O,1,21,EE2334043E6E8184,郵政總局 (CW155),邮政总局 (CW155),GENERAL POST OFFICE (CW155),22.283298,114.159665
960P,O,1,22,EF111F2EC49F64AE,金鐘站 (B2) (CW165),金钟站 (B2) (CW165),ADMIRALTY STATION (B2) (CW165),22.278566,114.164343
960P,O,1,23,AD1B202B678A3B56,軍器廠街 (WC210),军器厂街 (WC210),ARSENAL STREET (WC210),22.277878,114.16905
960P,O,1,24,B30799FB3732222B,菲林明道 (WC214),菲林明道 (WC214),FLEMING ROAD (WC214),22.277831,114.174009
960P,O,1,25,4C333C4D4E80902B,史釗域道 (WC217),史钊域道 (WC217),STEWART ROAD (WC217),22.278228,114.177304
960P,O,1,26,F1A22B170518051B,灣仔消防局 (WC220),湾仔消防局 (WC220),WAN CHAI FIRE STATION (WC220),22.279647,114.181855
960P,O,1,27,69F0130ADB11EF8B,崇光百貨 (WC222),崇光百货 (WC222),SOGO DEPARTMENT STORE (WC222),22.280249,114.183934
960P,O,1,28,17B98BD1165A7B92,維多利亞公園 (ED310),维多利亚公园 (ED310),VICTORIA PARK (ED310),22.280958,114.189949
960P,I,1,1,CFC063BFE7F6F67B,中央圖書館 (ED641),中央图书馆 (ED641),HONG KONG CENTRAL LIBRARY (ED641),22.280326,114.189351
960P,I,1,2,BBFDDE87E6A6DD13,怡和街 (WC651),怡和街 (WC651),YEE WO STREET (WC651),22.279806,114.185362
960P,I,1,3,D073FFE1CF019F1F,天樂里 (WC665),天乐里 (WC665),TIN LOK LANE (WC665),22.278923,114.180447
960P,I,1,4,569100345CF1E324,廣生行大廈 (WC667),广生行大厦 (WC667),KWONG SANG HONG BUILDING (WC667),22.278032,114.177487
960P,I,1,5,C3D2F84C0F0FF415,菲林明道 (WC670),菲林明道 (WC670),FLEMING ROAD (WC670),22.277581,114.174166
960P,I,1,6,F5BB84FC3C97BC6A,盧押道 (WC705),卢押道 (WC705),LUARD ROAD (WC705),22.2784,114.1716
960P,I,1,7,11CE1FD8440A89D3,皇后像廣場 (CW775),皇后像广场 (CW775),STATUE SQUARE (CW775),22.281936,114.16012
960P,I,1,8,4AA350AD8FFF4786,砵典乍街 (CW776),砵典乍街 (CW776),POTTINGER STREET (CW776),22.283262,114.157565
960P,I,1,9,B8FBAC0A201E0F2C,機利文街 (CW778),机利文街 (CW778),GILMAN STREET (CW778),22.286175,114.154539
960P,I,1,10,16F1654702825C04,林士街 (CW780),林士街 (CW780),RUMSEY STREET (CW780),22.286858,114.153154
960P,I,1,11,AD97EA183A25102C,西隧轉車站 (B1) (YT603),西隧转车站 (B1) (YT603),WESTERN HARBOUR TUNNEL BBI (B1) (YT603),22.304471,114.158659
960P,I,1,12,DFE346B2C7332BC0,屯門公路轉車站 (B6) (TM102),屯门公路转车站 (B6) (TM102),TUEN MUN ROAD BBI (B6) (TM102),22.358063,114.019164
960P,I,1,13,872110C8ADA14DA1,屯門公路轉車站 (B1) (TM107),屯门公路转车站 (B1) (TM107),TUEN MUN ROAD BBI (B1) (TM107),22.35872,114.018548
960P,I,1,14,F26CC0CB9587F2F9,屯門大會堂 (TM120),屯门大会堂 (TM120),TUEN MUN TOWN HALL (TM120),22.391927,113.977165
960P,I,1,15,7AC6625D894BA101,新墟街市 (TM130),新墟街市 (TM130),SAN HUI MARKET (TM130),22.398858,113.976525
960P,I,1,16,CBE54DB551C24A02,紅橋 (TM133),红桥 (TM133),HUNG KIU (TM133),22.402437,113.977155
960P,I,1,17,EC225F6F55BFA35E,虎地 (TM151),虎地 (TM151),FU TEI (TM151),22.412962,113.979772
960P,I,1,18,7FE552E3792C9047,藍地站 (TM340),蓝地站 (TM340),LAM TEI STATION (TM340),22.418158,113.981936
960P,I,1,19,5587F6CBEF8C74F1,青磚圍 (TM342),青砖围 (TM342),TSING CHUEN WAI (TM342),22.422507,113.985394
960P,I,1,20,468DB19F9ECA7507,泥圍站 (TM344),泥围站 (TM344),NAI WAI STATION (TM344),22.423445,113.98627
960P,I,1,21,030A0F57C577B5EA,亦園村 (TM346),亦园村 (TM346),YICK YUEN TSUEN (TM346),22.426616,113.989202
960P,I,1,22,F1A6B3410C090751,鍾屋村站 (TM348),钟屋村站 (TM348),CHUNG UK TSUEN STATION (TM348),22.429686,113.992324
960P,I,1,23,0BFC5F7FC4A2D431,洪水橋站 (YL350),洪水桥站 (YL350),HUNG SHUI KIU STATION (YL350),22.43388,113.997787
960P,I,1,24,AC1A0FA3D0743FCC,洪天路洪福邨 (YL580),洪天路洪福邨 (YL580),HUNG FUK ESTATE HUNG TIN ROAD (YL580),22.437614,113.998962
960P,I,1,25,A856593C105D479B,洪元路洪福邨 (YL586),洪元路洪福邨 (YL586),HUNG FUK ESTATE HUNG YUEN ROAD (YL586),22.437026,113.996724
960X,O,1,1,595CE3974AB6F377,洪水橋(洪元路)總站 (YL910),洪水桥(洪元路)总站 (YL910),HUNG SHUI KIU (HUNG YUEN ROAD) BUS TERMINUS,22.43456,113.99829
960X,O,1,2,D0F6D267978B38E3,洪元路洪福邨 (YL125),洪元路洪福邨 (YL125),HUNG FUK ESTATE HUNG YUEN ROAD (YL125),22.43715,113.996592
960X,O,1,3,5FCE752FBBAB3B14,尚城 (YL269),尚城 (YL269),UPTOWN (YL269),22.435412,114.000373
960X,O,1,4,8FA8E142E834CB7C,洪水橋站 (YL270),洪水桥站 (YL270),HUNG SHUI KIU STATION (YL270),22.433635,113.997883
960X,O,1,5,92A09EC9B712A1ED,鍾屋村站 (TM273),钟屋村站 (TM273),CHUNG UK TSUEN STATION (TM273),22.429689,113.992695
960X,O,1,6,4885700825A72F51,亦園村 (TM275),亦园村 (TM275),YICK YUEN TSUEN (TM275),22.426912,113.989881
960X,O,1,7,A1541789F09C89BA,泥圍 (TM277),泥围 (TM277),NAI WAI (TM277),22.423907,113.987079
960X,O,1,8,D073CC71A1B4F79C,福亨村 (TM279),福亨村 (TM279),FUK HANG TSUEN (TM279),22.422574,113.985749
960X,O,1,9,B64EEA7F564C7853,妙法寺 (TM281),妙法寺 (TM281),MIU FAT BUDDHIST MONASTERY (TM281),22.420492,113.983893
960X,O,1,10,46D1A9FD1F84CA5C,藍地站 (TM284),蓝地站 (TM284),LAM TEI STATION (TM284),22.418325,113.982282
960X,O,1,11,BDD49A91FF705B42,虎地 (TM700),虎地 (TM700),FU TEI (TM700),22.413423,113.980436
960X,O,1,12,507D90B4B976DBD6,田景邨田樂樓 (TM536),田景邨田乐楼 (TM536),TIN LOK HOUSE TIN KING ESTATE (TM536),22.407591,113.964929
960X,O,1,13,1F6BFDF34BABCE6A,田景邨田裕樓 (TM540),田景邨田裕楼 (TM540),TIN YUE HOUSE TIN KING ESTATE (TM540),22.405482,113.964709
960X,O,1,14,F7BE579A89615965,建生邨樂生樓 (TM561),建生邨乐生楼 (TM561),LOK SANG HOUSE KIN SANG ESTATE (TM561),22.405113,113.968859
960X,O,1,15,DD56DC2336C878C1,紅橋 (K1) (TM714),红桥 (K1) (TM714),HUNG KIU (K1) (TM714),22.402117,113.977486
960X,O,1,16,8121695666A4D9CE,屯門屯仁街 (TM718),屯门屯仁街 (TM718),TUEN YAN STREET TUEN MUN (TM718),22.394185,113.977084
960X,O,1,17,C2787E27F82716BF,華都花園 (TM721),华都花园 (TM721),WALDORF GARDEN (TM721),22.391762,113.977754
960X,O,1,18,376C4835851621D4,屯門公路轉車站 (A15) (TM750),屯门公路转车站 (A15) (TM750),TUEN MUN ROAD BBI (A15) (TM750),22.362928,114.015522
960X,O,1,19,CA6AB8446B694566,屯門公路轉車站 (A5) (TM754),屯门公路转车站 (A5) (TM754),TUEN MUN ROAD BBI (A5) (TM754),22.36263,114.01581
960X,O,1,20,E18D73287340B634,西隧轉車站 (A3) (YT311),西隧转车站 (A3) (YT311),WESTERN HARBOUR TUNNEL BBI (A3) (YT311),22.304356,114.159916
960X,O,1,21,18B12EFC0F896CF2,北角消防局 (ED301),北角消防局 (ED301),NORTH POINT FIRE STATION (ED301),22.292187,114.207912
960X,O,1,22,85CACCFD0C731C5B,北角官立小學 (ED352),北角官立小学 (ED352),NORTH POINT GOVERNMENT PRIMARY SCHOOL (ED352),22.288917,114.209889
960X,O,1,23,A77FC2D2F11EC88B,新威園 (ED353),新威园 (ED353),SUNWAY GARDENS (ED353),22.28582,114.211232
960X,I,1,1,F75D0D2C6014A854,鰂魚涌（英皇道）總站 (ED552),鲗鱼涌（英皇道）总站 (ED552),QUARRY BAY (KING'S ROAD) TERMINUS (ED552),22.286032,114.210839
960X,I,1,2,8A573E6526B8EF88,北角官立小學 (ED554),北角官立小学 (ED554),NORTH POINT GOVT PRIMARY SCHOOL (ED554),22.289104,114.209503
960X,I,1,3,1D53F0BB47AB8441,模範邨 (ED556),模范邨 (ED556),MODEL HOUSING ESTATE (ED556),22.291524,114.207651
960X,I,1,4,AD97EA183A25102C,西隧轉車站 (B1) (YT603),西隧转车站 (B1) (YT603),WESTERN HARBOUR TUNNEL BBI (B1) (YT603),22.304471,114.158659
960X,I,1,5,DFE346B2C7332BC0,屯門公路轉車站 (B6) (TM102),屯门公路转车站 (B6) (TM102),TUEN MUN ROAD BBI (B6) (TM102),22.358063,114.019164
960X,I,1,6,872110C8ADA14DA1,屯門公路轉車站 (B1) (TM107),屯门公路转车站 (B1) (TM107),TUEN MUN ROAD BBI (B1) (TM107),22.35872,114.018548
960X,I,1,7,25BC743BF6EB726E,屯門市廣場 (TM122),屯门市广场 (TM122),TUEN MUN TOWN PLAZA (TM122),22.392977,113.976862
960X,I,1,8,7AC6625D894BA101,新墟街市 (TM130),新墟街市 (TM130),SAN HUI MARKET (TM130),22.398858,113.976525
960X,I,1,9,CBE54DB551C24A02,紅橋 (TM133),红桥 (TM133),HUNG KIU (TM133),22.402437,113.977155
960X,I,1,10,78B537644BD4FE00,建生邨樂生樓 (TM376),建生邨乐生楼 (TM376),LOK SANG HOUSE KIN SANG ESTATE (TM376),22.404967,113.969095
960X,I,1,11,542CC0EC83BAEA01,新圍苑 (TM380),新围苑 (TM380),SAN WAI COURT (TM380),22.405362,113.964142
960X,I,1,12,840532B7C95DF870,兆邦苑 (TM382),兆邦苑 (TM382),SIU PONG COURT (TM382),22.407738,113.965595
960X,I,1,13,315BE0CA231DCD4F,寶田轉車站 - 寶田 (T2) (TM190),宝田转车站 - 宝田 (T2) (TM190),PO TIN BBI - PO TIN (T2) (TM190),22.409406,113.967043
960X,I,1,14,EDF4C2EAFDBD4693,大興警署 (TM550),大兴警署 (TM550),TAI HING POLICE STATION (TM550),22.407849,113.970585
960X,I,1,15,12CF2025741EF844,麒麟圍 (TM485),麒麟围 (TM485),KEI LUN WAI (TM485),22.410727,113.976479
960X,I,1,16,580D52F4D93CAD9B,欣田邨 (TM488),欣田邨 (TM488),YAN TIN ESTATE (TM488),22.413767,113.97689
960X,I,1,17,3199543D3AE70527,五柳路 (TM490),五柳路 (TM490),NG LAU ROAD (TM490),22.415601,113.979372
960X,I,1,18,F1D1F84A466543BE,富泰邨 (TM286),富泰邨 (TM286),FU TAI ESTATE (TM286),22.412973,113.982399
960X,I,1,19,CDE9BBBDE0226995,聚康山莊 (TM145),聚康山庄 (TM145),BENEVILLE (TM145),22.411907,113.982927
960X,I,1,20,7FE552E3792C9047,藍地站 (TM340),蓝地站 (TM340),LAM TEI STATION (TM340),22.418158,113.981936
960X,I,1,21,5587F6CBEF8C74F1,青磚圍 (TM342),青砖围 (TM342),TSING CHUEN WAI (TM342),22.422507,113.985394
960X,I,1,22,468DB19F9ECA7507,泥圍站 (TM344),泥围站 (TM344),NAI WAI STATION (TM344),22.423445,113.98627
960X,I,1,23,030A0F57C577B5EA,亦園村 (TM346),亦园村 (TM346),YICK YUEN TSUEN (TM346),22.426616,113.989202
960X,I,1,24,F1A6B3410C090751,鍾屋村站 (TM348),钟屋村站 (TM348),CHUNG UK TSUEN STATION (TM348),22.429686,113.992324
960X,I,1,25,0BFC5F7FC4A2D431,洪水橋站 (YL350),洪水桥站 (YL350),HUNG SHUI KIU STATION (YL350),22.43388,113.997787
960X,I,1,26,D0F6D267978B38E3,洪元路洪福邨 (YL125),洪元路洪福邨 (YL125),HUNG FUK ESTATE HUNG YUEN ROAD (YL125),22.43715,113.996592
A34,O,1,1,E24E05B38AA2D28E,洪水橋(洪元路)總站 (YL911),洪水桥(洪元路)总站 (YL911),HUNG SHUI KIU (HUNG YUEN ROAD) BUS TERMINUS,22.43456,113.99829
A34,O,1,2,0C6879C89662708A,洪天路洪福邨 (YL581),洪天路洪福邨 (YL581),HUNG FUK ESTATE HUNG TIN ROAD (YL581),22.437764,113.998962
A34,O,1,3,A1843D30B9F347DE,尚城 (YL268),尚城 (YL268),UPTOWN (YL268),22.435412,114.000373
A34,O,1,4,3E20F9BD4AB8067F,洪水橋站 (YL271),洪水桥站 (YL271),HUNG SHUI KIU STATION (YL271),22.433635,113.997883
A34,O,1,5,9D65EA81218F7784,鍾屋村站 (TM274),钟屋村站 (TM274),CHUNG UK TSUEN STATION (TM274),22.429689,113.992695
A34,O,1,6,DC7AC2F4CE4F5059,亦園村 (TM276),亦园村 (TM276),YICK YUEN TSUEN (TM276),22.426912,113.989881
A34,O,1,7,C1528848376F5B95,泥圍 (TM278),泥围 (TM278),NAI WAI (TM278),22.423907,113.987079
A34,O,1,8,0CC3913BEF225E76,福亨村 (TM280),福亨村 (TM280),FUK HANG TSUEN (TM280),22.422574,113.985749
A34,O,1,9,97A265C9E6F9AA61,妙法寺 (TM282),妙法寺 (TM282),MIU FAT BUDDHIST MONASTERY (TM282),22.420492,113.983893
A34,O,1,10,29395B362BEDBA1E,藍地站 (TM283),蓝地站 (TM283),LAM TEI STATION (TM283),22.418325,113.982282
A34,O,1,11,229128E5EA86F3A2,兆康路 (TM527),兆康路 (TM527),SIU HONG ROAD (TM527),22.414894,113.977411
A34,O,1,12,776535DC784DD106,菁田邨 (TM495),菁田邨 (TM495),Ching Tin Estate (TM495),22.413165,113.972357
A34,O,1,13,C054428621712B5C,NOVO LAND (TM497),NOVO LAND (TM497),NOVO LAND (TM497),22.411987,113.970355
A34,O,1,14,FA36E29F8BCC544C,和田邨 (TM503),和田邨 (TM503),WO TIN ESTATE (TM503),22.412519,113.968638
A34,O,1,15,448D42252303EC00,寶田轉車站 - 盈豐園(S1),宝田转车站 - 盈丰园(S1),PO TIN BBI - GOODRICH GARDEN (S1) (TM581),22.408075,113.967266
A34,O,1,16,712504F8E762020C,田景邨田樂樓 (TM537),田景邨田乐楼 (TM537),TIN LOK HOUSE TIN KING ESTATE (TM537),22.407598,113.964934
A34,O,1,17,F307FDA96A1DF9A2,田景邨田裕樓 (TM541),田景邨田裕楼 (TM541),TIN YUE HOUSE TIN KING ESTATE (TM541),22.405517,113.964557
A34,O,1,18,8E76875D12C239A3,建生邨樂生樓 (TM560),建生邨乐生楼 (TM560),LOK SANG HOUSE KIN SANG ESTATE (TM560),22.405113,113.968859
A34,O,1,19,ADE15F24D2EE0B20,大興體育館 (TM553),大兴体育馆 (TM553),TAI HING SPORTS CENTRE (TM553),22.404141,113.972812
A34,O,1,20,9E10C87488BC7493,翠林花園 (TM571),翠林花园 (TM571),GREEN LAND GARDEN (TM571),22.401024,113.972097
A34,O,1,21,951EB88600BAF893,大興街 (TM573),大兴街 (TM573),TAI HING STREET (TM573),22.400776,113.968315
A34,O,1,22,F4C9995BB455AB46,鳴琴站 (TM587),鸣琴站 (TM587),MING KUM STATION (TM587),22.396655,113.967709
A34,O,1,23,4FF70CD3938702E4,青雲站 (TM591),青云站 (TM591),TSING WUN STATION (TM591),22.393561,113.967787
A34,O,1,24,224B3B71A4C25C01,聖彼德堂 (TM592),圣彼德堂 (TM592),ST. PETER CHURCH (TM592),22.392018,113.967799
A34,O,1,25,333A88A8E07C956B,富健花園 (TM432),富健花园 (TM432),GLORIOUS GARDEN (TM432),22.383759,113.964723
A34,O,1,26,B2442AC56532517B,新屯門中心 (TM434),新屯门中心 (TM434),SUN TUEN MUN CENTRE (TM434),22.381876,113.963884
A34,O,1,27,78644FF7E8B7BBA0,兆山苑柳景閣 (TM436),兆山苑柳景阁 (TM436),"LAU KING HOUSE, SIU SHAN COURT (TM436)",22.378092,113.962003
A34,O,1,28,0221966C1116C4EC,蝴蝶灣 (TM437),蝴蝶湾 (TM437),BUTTERFLY BEACH (TM437),22.375202,113.958709
A34,O,1,29,C70342BF7C6A4732,屯門赤鱲角隧道轉車站 (A1),屯门赤鱲角隧道转车站 (A1),TUEN MUN CHEK LAP KOK TUNNEL BBI (A1) (TM514),22.368444,113.948584
A34,O,1,30,0D5759F7A4B185FE,港珠澳大橋旅檢大樓 (落客站),港珠澳大桥旅检大楼 (落客站),HZMB PASSENGER CLEARANCE BUILDING (ALIGHTING STOP),22.317083,113.950041
A34,O,1,31,C552CE565E1F0C85,一號客運大樓 (落客站),一号客运大楼 (落客站),TERMINAL 1 (ALIGHTING STOP),22.315047,113.936362
A34,O,1,32,21466046C6868AA7,機場(地面運輸中心)巴士總站,机场(地面运输中心)巴士总站,AIRPORT (GTC) BUS TERMINUS (CL900),22.312604,113.937526
A34,O,3,1,E24E05B38AA2D28E,洪水橋(洪元路)總站 (YL911),洪水桥(洪元路)总站 (YL911),HUNG SHUI KIU (HUNG YUEN ROAD) BUS TERMINUS,22.43456,113.99829
A34,O,3,2,0C6879C89662708A,洪天路洪福邨 (YL581),洪天路洪福邨 (YL581),HUNG FUK ESTATE HUNG TIN ROAD (YL581),22.437764,113.998962
A34,O,3,3,A1843D30B9F347DE,尚城 (YL268),尚城 (YL268),UPTOWN (YL268),22.435412,114.000373
A34,O,3,4,3E20F9BD4AB8067F,洪水橋站 (YL271),洪水桥站 (YL271),HUNG SHUI KIU STATION (YL271),22.433635,113.997883
A34,O,3,5,9D65EA81218F7784,鍾屋村站 (TM274),钟屋村站 (TM274),CHUNG UK TSUEN STATION (TM274),22.429689,113.992695
A34,O,3,6,DC7AC2F4CE4F5059,亦園村 (TM276),亦园村 (TM276),YICK YUEN TSUEN (TM276),22.426912,113.989881
A34,O,3,7,C1528848376F5B95,泥圍 (TM278),泥围 (TM278),NAI WAI (TM278),22.423907,113.987079
A34,O,3,8,0CC3913BEF225E76,福亨村 (TM280),福亨村 (TM280),FUK HANG TSUEN (TM280),22.422574,113.985749
A34,O,3,9,97A265C9E6F9AA61,妙法寺 (TM282),妙法寺 (TM282),MIU FAT BUDDHIST MONASTERY (TM282),22.420492,113.983893
A34,O,3,10,29395B362BEDBA1E,藍地站 (TM283),蓝地站 (TM283),LAM TEI STATION (TM283),22.418325,113.982282
A34,O,3,11,229128E5EA86F3A2,兆康路 (TM527),兆康路 (TM527),SIU HONG ROAD (TM527),22.414894,113.977411
A34,O,3,12,776535DC784DD106,菁田邨 (TM495),菁田邨 (TM495),Ching Tin Estate (TM495),22.413165,113.972357
A34,O,3,13,C054428621712B5C,NOVO LAND (TM497),NOVO LAND (TM497),NOVO LAND (TM497),22.411987,113.970355
A34,O,3,14,FA36E29F8BCC544C,和田邨 (TM503),和田邨 (TM503),WO TIN ESTATE (TM503),22.412519,113.968638
A34,O,3,15,448D42252303EC00,寶田轉車站 - 盈豐園(S1),宝田转车站 - 盈丰园(S1),PO TIN BBI - GOODRICH GARDEN (S1) (TM581),22.408075,113.967266
A34,O,3,16,712504F8E762020C,田景邨田樂樓 (TM537),田景邨田乐楼 (TM537),TIN LOK HOUSE TIN KING ESTATE (TM537),22.407598,113.964934
A34,O,3,17,F307FDA96A1DF9A2,田景邨田裕樓 (TM541),田景邨田裕楼 (TM541),TIN YUE HOUSE TIN KING ESTATE (TM541),22.405517,113.964557
A34,O,3,18,8E76875D12C239A3,建生邨樂生樓 (TM560),建生邨乐生楼 (TM560),LOK SANG HOUSE KIN SANG ESTATE (TM560),22.405113,113.968859
A34,O,3,19,ADE15F24D2EE0B20,大興體育館 (TM553),大兴体育馆 (TM553),TAI HING SPORTS CENTRE (TM553),22.404141,113.972812
A34,O,3,20,9E10C87488BC7493,翠林花園 (TM571),翠林花园 (TM571),GREEN LAND GARDEN (TM571),22.401024,113.972097
A34,O,3,21,951EB88600BAF893,大興街 (TM573),大兴街 (TM573),TAI HING STREET (TM573),22.400776,113.968315
A34,O,3,22,F4C9995BB455AB46,鳴琴站 (TM587),鸣琴站 (TM587),MING KUM STATION (TM587),22.396655,113.967709
A34,O,3,23,4FF70CD3938702E4,青雲站 (TM591),青云站 (TM591),TSING WUN STATION (TM591),22.393561,113.967787
A34,O,3,24,224B3B71A4C25C01,聖彼德堂 (TM592),圣彼德堂 (TM592),ST. PETER CHURCH (TM592),22.392018,113.967799
A34,O,3,25,333A88A8E07C956B,富健花園 (TM432),富健花园 (TM432),GLORIOUS GARDEN (TM432),22.383759,113.964723
A34,O,3,26,B2442AC56532517B,新屯門中心 (TM434),新屯门中心 (TM434),SUN TUEN MUN CENTRE (TM434),22.381876,113.963884
A34,O,3,27,78644FF7E8B7BBA0,兆山苑柳景閣 (TM436),兆山苑柳景阁 (TM436),"LAU KING HOUSE, SIU SHAN COURT (TM436)",22.378092,113.962003
A34,O,3,28,0221966C1116C4EC,蝴蝶灣 (TM437),蝴蝶湾 (TM437),BUTTERFLY BEACH (TM437),22.375202,113.958709
A34,O,3,29,C70342BF7C6A4732,屯門赤鱲角隧道轉車站 (A1),屯门赤鱲角隧道转车站 (A1),TUEN MUN CHEK LAP KOK TUNNEL BBI (A1) (TM514),22.368444,113.948584
A34,O,3,30,0D5759F7A4B185FE,港珠澳大橋旅檢大樓 (落客站),港珠澳大桥旅检大楼 (落客站),HZMB PASSENGER CLEARANCE BUILDING (ALIGHTING STOP),22.317083,113.950041
A34,O,3,31,C552CE565E1F0C85,一號客運大樓 (落客站),一号客运大楼 (落客站),TERMINAL 1 (ALIGHTING STOP),22.315047,113.936362
A34,O,3,32,9C9F817064169CE7,機場博覽館 (CL320),机场博览馆 (CL320),ASIAWORLD EXPO (CL320),22.319407,113.940447
A34,O,3,33,E48E4C46F64FFB0E,航天城交匯處 (CL326),航天城交汇处 (CL326),Sky City Interchange (CL326),22.317172,113.943407
A34,O,3,34,21466046C6868AA7,機場(地面運輸中心)巴士總站,机场(地面运输中心)巴士总站,AIRPORT (GTC) BUS TERMINUS (CL900),22.312604,113.937526
A34,I,1,1,86218AD69549D7B2,機場(地面運輸中心)巴士總站,机场(地面运输中心)巴士总站,AIRPORT (GTC) BUS TERMINUS (CL904),22.314039,113.937235
A34,I,1,2,96CE5BB6CD5794BC,港珠澳大橋香港口岸 (W2),港珠澳大桥香港口岸 (W2),HZMB Hong Kong Port (W2) (CL935),22.316415,113.950528
A34,I,1,3,4B5144408E60BF11,屯門赤鱲角隧道轉車站 (T2),屯门赤鱲角隧道转车站 (T2),TUEN MUN CHEK LAP KOK TUNNEL BBI (T2) (TM663),22.369121,113.947704
A34,I,1,4,B651E2A39CD4CC05,蝴蝶灣 (TM670),蝴蝶湾 (TM670),BUTTERFLY BEACH (TM670),22.375651,113.959226
A34,I,1,5,F734736F35F459DC,蝴蝶站 (TM672),蝴蝶站 (TM672),BUTTERFLY STATION (TM672),22.378219,113.961708
A34,I,1,6,23B913EACE0581E4,新屯門中心 (TM675),新屯门中心 (TM675),SUN TUEN MUN CENTRE (TM675),22.381644,113.963405
A34,I,1,7,C6D5DEF91CB7B581,龍門站 (TM677),龙门站 (TM677),LUNG MUN STATION (TM677),22.385448,113.965184
A34,I,1,8,5051A4FF380B1502,青雲站 (TM180),青云站 (TM180),TSING WUN STATION (TM180),22.393502,113.967461
A34,I,1,9,9E1FC92F86D2F4E3,鳴琴站 (TM186),鸣琴站 (TM186),MING KUM STATION (TM186),22.396585,113.967372
A34,I,1,10,AA239AD010294414,中電 (TM471),中电 (TM471),CHINA LIGHT BUILDING (TM471),22.400938,113.968812
A34,I,1,11,284790CC047436BE,台山小學 (TM473),台山小学 (TM473),TOI SHAN PRIMARY SCHOOL (TM473),22.401251,113.9718
A34,I,1,12,A80A0719C2068B68,大興體育館 (TM475),大兴体育馆 (TM475),TAI HING SPORTS CENTRE (TM475),22.403426,113.972576
A34,I,1,13,8667AD096EEED0A8,建生邨樂生樓 (TM375),建生邨乐生楼 (TM375),"LOK SANG HOUSE, KIN SANG ESTATE (TM375)",22.404967,113.969095
A34,I,1,14,BA72A994EEF9FABE,新圍苑 (TM381),新围苑 (TM381),SAN WAI COURT (TM381),22.405354,113.964209
A34,I,1,15,F8FE29B1FAF8BA77,兆邦苑 (TM383),兆邦苑 (TM383),SIU PONG COURT (TM383),22.407737,113.965662
A34,I,1,16,B26245505565A1E0,寶田轉車站 - 寶田 (T1) (TM192),宝田转车站 - 宝田 (T1) (TM192),PO TIN BBI - PO TIN (T1) (TM192),22.409277,113.967028
A34,I,1,17,88F986C270B16408,和田邨 (TM501),和田邨 (TM501),WO TIN ESTATE (TM501),22.412897,113.968649
A34,I,1,18,90CFA838B3C95AE0,NOVO LAND (TM520),NOVO LAND (TM520),NOVO LAND (TM520),22.412115,113.970279
A34,I,1,19,3C6FA714F5D6EE83,紫田村 (TM522),紫田村 (TM522),TSZ TIN TSUEN (TM522),22.414047,113.973446
A34,I,1,20,2D1C73EF002336DC,欣田邨 (TM487),欣田邨 (TM487),YAN TIN ESTATE (TM487),22.414268,113.977171
A34,I,1,21,8A97896E33AED30C,藍地站 (TM341),蓝地站 (TM341),LAM TEI STATION (TM341),22.418158,113.981936
A34,I,1,22,54045C861286559E,青磚圍 (TM343),青砖围 (TM343),TSING CHUEN WAI (TM343),22.422507,113.985394
A34,I,1,23,8935A262593E620A,泥圍站 (TM345),泥围站 (TM345),NAI WAI STATION (TM345),22.423445,113.98627
A34,I,1,24,E701147EA74E97F2,亦園村 (TM347),亦园村 (TM347),YICK YUEN TSUEN (TM347),22.426616,113.989202
A34,I,1,25,CD077FC371E93248,鍾屋村站 (TM349),钟屋村站 (TM349),CHUNG UK TSUEN STATION (TM349),22.429686,113.992324
A34,I,1,26,4CEB8ACF469C6AD5,洪水橋站 (YL351),洪水桥站 (YL351),HUNG SHUI KIU STATION (YL351),22.43388,113.997787
A34,I,1,27,0C6879C89662708A,洪天路洪福邨 (YL581),洪天路洪福邨 (YL581),HUNG FUK ESTATE HUNG TIN ROAD (YL581),22.437764,113.998962
A34,I,1,28,DCA166B0A16656DD,洪元路洪福邨 (YL587),洪元路洪福邨 (YL587),"HUNG FUK ESTATE, HUNG YUEN ROAD (YL587)",22.437353,113.99662
A34,I,1,29,E24E05B38AA2D28E,洪水橋(洪元路)總站 (YL911),洪水桥(洪元路)总站 (YL911),HUNG SHUI KIU (HUNG YUEN ROAD) BUS TERMINUS,22.43456,113.99829
A34,I,2,1,86218AD69549D7B2,機場(地面運輸中心)巴士總站,机场(地面运输中心)巴士总站,AIRPORT (GTC) BUS TERMINUS (CL904),22.314039,113.937235
A34,I,2,2,9C9F817064169CE7,機場博覽館 (CL320),机场博览馆 (CL320),ASIAWORLD EXPO (CL320),22.319407,113.940447
A34,I,2,3,E48E4C46F64FFB0E,航天城交匯處 (CL326),航天城交汇处 (CL326),Sky City Interchange (CL326),22.317172,113.943407
A34,I,2,4,96CE5BB6CD5794BC,港珠澳大橋香港口岸 (W2),港珠澳大桥香港口岸 (W2),HZMB Hong Kong Port (W2) (CL935),22.316415,113.950528
A34,I,2,5,4B5144408E60BF11,屯門赤鱲角隧道轉車站 (T2),屯门赤鱲角隧道转车站 (T2),TUEN MUN CHEK LAP KOK TUNNEL BBI (T2) (TM663),22.369121,113.947704
A34,I,2,6,B651E2A39CD4CC05,蝴蝶灣 (TM670),蝴蝶湾 (TM670),BUTTERFLY BEACH (TM670),22.375651,113.959226
A34,I,2,7,F734736F35F459DC,蝴蝶站 (TM672),蝴蝶站 (TM672),BUTTERFLY STATION (TM672),22.378219,113.961708
A34,I,2,8,23B913EACE0581E4,新屯門中心 (TM675),新屯门中心 (TM675),SUN TUEN MUN CENTRE (TM675),22.381644,113.963405
A34,I,2,9,C6D5DEF91CB7B581,龍門站 (TM677),龙门站 (TM677),LUNG MUN STATION (TM677),22.385448,113.965184
A34,I,2,10,5051A4FF380B1502,青雲站 (TM180),青云站 (TM180),TSING WUN STATION (TM180),22.393502,113.967461
A34,I,2,11,9E1FC92F86D2F4E3,鳴琴站 (TM186),鸣琴站 (TM186),MING KUM STATION (TM186),22.396585,113.967372
A34,I,2,12,AA239AD010294414,中電 (TM471),中电 (TM471),CHINA LIGHT BUILDING (TM471),22.400938,113.968812
A34,I,2,13,284790CC047436BE,台山小學 (TM473),台山小学 (TM473),TOI SHAN PRIMARY SCHOOL (TM473),22.401251,113.9718
A34,I,2,14,A80A0719C2068B68,大興體育館 (TM475),大兴体育馆 (TM475),TAI HING SPORTS CENTRE (TM475),22.403426,113.972576
A34,I,2,15,8667AD096EEED0A8,建生邨樂生樓 (TM375),建生邨乐生楼 (TM375),"LOK SANG HOUSE, KIN SANG ESTATE (TM375)",22.404967,113.969095
A34,I,2,16,BA72A994EEF9FABE,新圍苑 (TM381),新围苑 (TM381),SAN WAI COURT (TM381),22.405354,113.964209
A34,I,2,17,F8FE29B1FAF8BA77,兆邦苑 (TM383),兆邦苑 (TM383),SIU PONG COURT (TM383),22.407737,113.965662
A34,I,2,18,B26245505565A1E0,寶田轉車站 - 寶田 (T1) (TM192),宝田转车站 - 宝田 (T1) (TM192),PO TIN BBI - PO TIN (T1) (TM192),22.409277,113.967028
A34,I,2,19,88F986C270B16408,和田邨 (TM501),和田邨 (TM501),WO TIN ESTATE (TM501),22.412897,113.968649
A34,I,2,20,90CFA838B3C95AE0,NOVO LAND (TM520),NOVO LAND (TM520),NOVO LAND (TM520),22.412115,113.970279
A34,I,2,21,3C6FA714F5D6EE83,紫田村 (TM522),紫田村 (TM522),TSZ TIN TSUEN (TM522),22.414047,113.973446
A34,I,2,22,2D1C73EF002336DC,欣田邨 (TM487),欣田邨 (TM487),YAN TIN ESTATE (TM487),22.414268,113.977171
A34,I,2,23,8A97896E33AED30C,藍地站 (TM341),蓝地站 (TM341),LAM TEI STATION (TM341),22.418158,113.981936
A34,I,2,24,54045C861286559E,青磚圍 (TM343),青砖围 (TM343),TSING CHUEN WAI (TM343),22.422507,113.985394
A34,I,2,25,8935A262593E620A,泥圍站 (TM345),泥围站 (TM345),NAI WAI STATION (TM345),22.423445,113.98627
A34,I,2,26,E701147EA74E97F2,亦園村 (TM347),亦园村 (TM347),YICK YUEN TSUEN (TM347),22.426616,113.989202
A34,I,2,27,CD077FC371E93248,鍾屋村站 (TM349),钟屋村站 (TM349),CHUNG UK TSUEN STATION (TM349),22.429686,113.992324
A34,I,2,28,4CEB8ACF469C6AD5,洪水橋站 (YL351),洪水桥站 (YL351),HUNG SHUI KIU STATION (YL351),22.43388,113.997787
A34,I,2,29,0C6879C89662708A,洪天路洪福邨 (YL581),洪天路洪福邨 (YL581),HUNG FUK ESTATE HUNG TIN ROAD (YL581),22.437764,113.998962
A34,I,2,30,DCA166B0A16656DD,洪元路洪福邨 (YL587),洪元路洪福邨 (YL587),"HUNG FUK ESTATE, HUNG YUEN ROAD (YL587)",22.437353,113.99662
A34,I,2,31,E24E05B38AA2D28E,洪水橋(洪元路)總站 (YL911),洪水桥(洪元路)总站 (YL911),HUNG SHUI KIU (HUNG YUEN ROAD) BUS TERMINUS,22.43456,113.99829
NA37,O,1,1,8370DDFF896AC3E0,天水圍市中心 (TN944),天水围市中心 (TN944),TIN SHUI WAI TOWN CENTRE (TN944),22.458165,114.002391
NA37,O,1,2,471AB47F0E2C6E89,景湖居 (TN241),景湖居 (TN241),KENSWOOD COURT (TN241),22.458691,114.00498
NA37,O,1,3,5AD0EDD70D540E29,麗湖居 (TN250),丽湖居 (TN250),LYNWOOD COURT (TN250),22.460342,114.004668
NA37,O,1,4,D7F4AE9D52F68682,天晴邨晴雲樓 (TN253),天晴邨晴云楼 (TN253),CHING WAN HOUSE TIN CHING ESTATE (TN253),22.463125,114.00391
NA37,O,1,5,147EF2F26EFE2BEF,慧景軒 (TN255),慧景轩 (TN255),VIANNI COVE (TN255),22.465381,114.004643
NA37,O,1,6,0C080F70E16F02B7,香港濕地公園 (TN401),香港湿地公园 (TN401),HONG KONG WETLAND PARK (TN401),22.469054,114.002796
NA37,O,1,7,73755A16EA9076FF,天逸邨逸潭樓 (TN500),天逸邨逸潭楼 (TN500),YAT TAM HOUSE TIN YAT ESTATE (TN500),22.468468,113.999554
NA37,O,1,8,F60E8E7D4B29135F,天富苑欣富閣 (TN502),天富苑欣富阁 (TN502),YAN FU HOUSE TIN FU COURT (TN502),22.464421,113.997485
NA37,O,1,9,4DD9CB2D8C7DB1D8,天頌苑 (TN506),天颂苑 (TN506),TIN CHUNG COURT (TN506),22.460486,113.997244
NA37,O,1,10,F24C06FAF6EE076F,天瑞邨 (TN509),天瑞邨 (TN509),TIN SHUI ESTATE (TN509),22.456381,113.999479
NA37,O,1,11,775642281FBFE336,天水圍公園 (TN511),天水围公园 (TN511),TIN SHUI WAI PARK (TN511),22.454484,114.00297
NA37,O,1,12,B85641FDDED22352,天耀邨耀盛樓 (TN572),天耀邨耀盛楼 (TN572),YIU SHING HOUSE TIN YIU ESTATE (TN572),22.452259,114.002123
NA37,O,1,13,8C8037479F88F500,天耀邨耀民樓 (TN580),天耀邨耀民楼 (TN580),YIU MAN HOUSE TIN YIU ESTATE (TN580),22.449585,114.003182
NA37,O,1,14,EF0567DCF0D20204,天水圍站 (YL613),天水围站 (YL613),TIN SHUI WAI STATION (YL613),22.446719,114.003014
NA37,O,1,15,241BD0C151A1B393,石埗村 (YL131),石埗村 (YL131),SHEK PO TSUEN (YL131),22.44021,113.998968
NA37,O,1,16,0C6879C89662708A,洪天路洪福邨 (YL581),洪天路洪福邨 (YL581),HUNG FUK ESTATE HUNG TIN ROAD (YL581),22.437764,113.998962
NA37,O,1,17,A1843D30B9F347DE,尚城 (YL268),尚城 (YL268),UPTOWN (YL268),22.435412,114.000373
NA37,O,1,18,3E20F9BD4AB8067F,洪水橋站 (YL271),洪水桥站 (YL271),HUNG SHUI KIU STATION (YL271),22.433635,113.997883
NA37,O,1,19,9D65EA81218F7784,鍾屋村站 (TM274),钟屋村站 (TM274),CHUNG UK TSUEN STATION (TM274),22.429689,113.992695
NA37,O,1,20,DC7AC2F4CE4F5059,亦園村 (TM276),亦园村 (TM276),YICK YUEN TSUEN (TM276),22.426912,113.989881
NA37,O,1,21,C1528848376F5B95,泥圍 (TM278),泥围 (TM278),NAI WAI (TM278),22.423907,113.987079
NA37,O,1,22,0CC3913BEF225E76,福亨村 (TM280),福亨村 (TM280),FUK HANG TSUEN (TM280),22.422574,113.985749
NA37,O,1,23,97A265C9E6F9AA61,妙法寺 (TM282),妙法寺 (TM282),MIU FAT BUDDHIST MONASTERY (TM282),22.420492,113.983893
NA37,O,1,24,29395B362BEDBA1E,藍地站 (TM283),蓝地站 (TM283),LAM TEI STATION (TM283),22.418325,113.982282
NA37,O,1,25,210978D525EEDF4F,紅橋 (K5) (TM710),红桥 (K5) (TM710),HUNG KIU (K5) (TM710),22.401991,113.977501
NA37,O,1,26,98197302E98C548E,華都花園 (TM722),华都花园 (TM722),WALDORF GARDEN (TM722),22.391695,113.977782
NA37,O,1,27,C70342BF7C6A4732,屯門赤鱲角隧道轉車站 (A1),屯门赤鱲角隧道转车站 (A1),TUEN MUN CHEK LAP KOK TUNNEL BBI (A1) (TM514),22.368444,113.948584
NA37,O,1,28,0D5759F7A4B185FE,港珠澳大橋旅檢大樓 (落客站),港珠澳大桥旅检大楼 (落客站),HZMB PASSENGER CLEARANCE BUILDING (ALIGHTING STOP),22.317083,113.950041
NA37,O,1,29,C552CE565E1F0C85,一號客運大樓 (落客站),一号客运大楼 (落客站),TERMINAL 1 (ALIGHTING STOP),22.315047,113.936362
NA37,O,1,30,AAC64BCDD5B55A86,國泰城 (CL221),国泰城 (CL221),CATHAY CITY (CL221),22.297687,113.933356
NA37,I,1,1,5FE1FD252713A49B,國泰城 (CL342),国泰城 (CL342),CATHAY CITY (CL342),22.297608,113.932902
NA37,I,1,2,93A608CBFD9D5128,機場(地面運輸中心)巴士總站,机场(地面运输中心)巴士总站,AIRPORT (GTC) BUS TERMINUS (CL901),22.313757,113.937337
NA37,I,1,3,3250A722B6084CC8,港珠澳大橋香港口岸 (W4),港珠澳大桥香港口岸 (W4),HZMB Hong Kong Port (W4) (CL933),22.316264,113.950488
NA37,I,1,4,5CDF70DDB539B39B,屯門赤鱲角隧道轉車站 (T4),屯门赤鱲角隧道转车站 (T4),TUEN MUN CHEK LAP KOK TUNNEL BBI (T4) (TM661),22.36886,113.947582
NA37,I,1,5,2BDF4BB3B2E038A2,屯門市廣場 (TM124),屯门市广场 (TM124),TUEN MUN TOWN PLAZA (TM124),22.393095,113.976826
NA37,I,1,6,D9B82EE66AFF2975,紅橋 (TM134),红桥 (TM134),HUNG KIU (TM134),22.402582,113.977175
NA37,I,1,7,8A97896E33AED30C,藍地站 (TM341),蓝地站 (TM341),LAM TEI STATION (TM341),22.418158,113.981936
NA37,I,1,8,54045C861286559E,青磚圍 (TM343),青砖围 (TM343),TSING CHUEN WAI (TM343),22.422507,113.985394
NA37,I,1,9,8935A262593E620A,泥圍站 (TM345),泥围站 (TM345),NAI WAI STATION (TM345),22.423445,113.98627
NA37,I,1,10,E701147EA74E97F2,亦園村 (TM347),亦园村 (TM347),YICK YUEN TSUEN (TM347),22.426616,113.989202
NA37,I,1,11,CD077FC371E93248,鍾屋村站 (TM349),钟屋村站 (TM349),CHUNG UK TSUEN STATION (TM349),22.429686,113.992324
NA37,I,1,12,4CEB8ACF469C6AD5,洪水橋站 (YL351),洪水桥站 (YL351),HUNG SHUI KIU STATION (YL351),22.43388,113.997787
NA37,I,1,13,0C6879C89662708A,洪天路洪福邨 (YL581),洪天路洪福邨 (YL581),HUNG FUK ESTATE HUNG TIN ROAD (YL581),22.437764,113.998962
NA37,I,1,14,023F856BE4F830F2,石埗村 (YL583),石埗村 (YL583),SHEK PO TSUEN (YL583),22.440095,113.998348
NA37,I,1,15,CEDD8C935E63648C,天水圍站 (YL113),天水围站 (YL113),TIN SHUI WAI STATION (YL113),22.446518,114.001899
NA37,I,1,16,521ACE041201135C,天盛苑 (TN205),天盛苑 (TN205),TIN SHING COURT (TN205),22.449499,114.002938
NA37,I,1,17,DAC9F4035C02B5B2,賞湖居 (TN211),赏湖居 (TN211),SHERWOOD COURT (TN211),22.452473,114.002031
NA37,I,1,18,6174C11305616FCA,天水圍公園 (TN221),天水围公园 (TN221),TIN SHUI WAI PARK (TN221),22.454823,114.001892
NA37,I,1,19,1C49FFB3352144AC,天瑞邨 (TN222),天瑞邨 (TN222),TIN SHUI ESTATE (TN222),22.456987,113.998854
NA37,I,1,20,5498C13EB8685C46,天華邨 (TN224),天华邨 (TN224),TIN WAH ESTATE (TN224),22.46029,113.997108
NA37,I,1,21,7C8F479D41B69151,天恩邨 (TN227),天恩邨 (TN227),TIN YAN ESTATE (TN227),22.464277,113.997257
NA37,I,1,22,3B5F1B8C69EAE397,天澤邨 (TN228),天泽邨 (TN228),TIN CHAK ESTATE (TN228),22.468157,113.999204
NA37,I,1,23,90A0828B57A59906,香港濕地公園 (TN301),香港湿地公园 (TN301),HONG KONG WETLAND PARK (TN301),22.469712,114.002847
NA37,I,1,24,A6C169DA579FC45B,慧景軒 (TN530),慧景轩 (TN530),VIANNI COVE (TN530),22.465728,114.005017
NA37,I,1,25,5AF9ADB51A9F2C51,香港青年協會李兆基書院 (TN532),香港青年协会李兆基书院 (TN532),HKFYG LEE SHAU KEE COLLEGE (TN532),22.463615,114.004184
NA37,I,1,26,CE9312CA8B00024E,美湖居 (TN534),美湖居 (TN534),MAYWOOD COURT (TN534),22.461038,114.004351
NA37,I,1,27,2C8B075910172B5A,天龍路 (TN538),天龙路 (TN538),TIN LUNG ROAD (TN538),22.459608,114.005541
NA37,I,1,28,AA92A3F2775F4F69,天水圍市中心 (TN945),天水围市中心 (TN945),TIN SHUI WAI TOWN CENTRE (TN945),22.458165,114.002391
X33,O,1,1,9C9F817064169CE7,機場博覽館 (CL320),机场博览馆 (CL320),ASIAWORLD EXPO (CL320),22.319407,113.940447
X33,O,1,2,4B5144408E60BF11,屯門赤鱲角隧道轉車站 (T2),屯门赤鱲角隧道转车站 (T2),TUEN MUN CHEK LAP KOK TUNNEL BBI (T2) (TM663),22.369121,113.947704
X33,O,1,3,B651E2A39CD4CC05,蝴蝶灣 (TM670),蝴蝶湾 (TM670),BUTTERFLY BEACH (TM670),22.375651,113.959226
X33,O,1,4,F734736F35F459DC,蝴蝶站 (TM672),蝴蝶站 (TM672),BUTTERFLY STATION (TM672),22.378219,113.961708
X33,O,1,5,23B913EACE0581E4,新屯門中心 (TM675),新屯门中心 (TM675),SUN TUEN MUN CENTRE (TM675),22.381644,113.963405
X33,O,1,6,C6D5DEF91CB7B581,龍門站 (TM677),龙门站 (TM677),LUNG MUN STATION (TM677),22.385448,113.965184
X33,O,1,7,4566E35B3D2C20B5,豐景園 (TM155),丰景园 (TM155),GOODVIEW GARDEN (TM155),22.383977,113.972905
X33,O,1,8,5055F6D68F0DD49D,翠寧花園 (TM158),翠宁花园 (TM158),TSUI NING GARDEN (TM158),22.383893,113.97448
X33,O,1,9,4D02E857ADDE8AAF,友愛邨 (TM163),友爱邨 (TM163),YAU OI ESTATE (TM163),22.387886,113.975114
X33,O,1,10,818F12340BA8CA4B,屯門公園 (TM169),屯门公园 (TM169),TUEN MUN PARK (TM169),22.392122,113.975127
X33,O,1,11,D74B67D55C63895F,屯門站總站 (V6) (TM953),屯门站总站 (V6) (TM953),TUEN MUN STATION BUS TERMINUS (V6) (TM953),22.394975,113.973399
X33,O,1,12,9E1FC92F86D2F4E3,鳴琴站 (TM186),鸣琴站 (TM186),MING KUM STATION (TM186),22.396585,113.967372
X33,O,1,13,AA239AD010294414,中電 (TM471),中电 (TM471),CHINA LIGHT BUILDING (TM471),22.400938,113.968812
X33,O,1,14,284790CC047436BE,台山小學 (TM473),台山小学 (TM473),TOI SHAN PRIMARY SCHOOL (TM473),22.401251,113.9718
X33,O,1,15,A80A0719C2068B68,大興體育館 (TM475),大兴体育馆 (TM475),TAI HING SPORTS CENTRE (TM475),22.403426,113.972576
X33,O,1,16,8667AD096EEED0A8,建生邨樂生樓 (TM375),建生邨乐生楼 (TM375),"LOK SANG HOUSE, KIN SANG ESTATE (TM375)",22.404967,113.969095
X33,O,1,17,BA72A994EEF9FABE,新圍苑 (TM381),新围苑 (TM381),SAN WAI COURT (TM381),22.405354,113.964209
X33,O,1,18,F8FE29B1FAF8BA77,兆邦苑 (TM383),兆邦苑 (TM383),SIU PONG COURT (TM383),22.407737,113.965662
X33,O,1,19,B26245505565A1E0,寶田轉車站 - 寶田 (T1) (TM192),宝田转车站 - 宝田 (T1) (TM192),PO TIN BBI - PO TIN (T1) (TM192),22.409277,113.967028
X33,O,1,20,88F986C270B16408,和田邨 (TM501),和田邨 (TM501),WO TIN ESTATE (TM501),22.412897,113.968649
X33,O,1,21,90CFA838B3C95AE0,NOVO LAND (TM520),NOVO LAND (TM520),NOVO LAND (TM520),22.412115,113.970279
X33,O,1,22,3C6FA714F5D6EE83,紫田村 (TM522),紫田村 (TM522),TSZ TIN TSUEN (TM522),22.414047,113.973446
X33,O,1,23,2D1C73EF002336DC,欣田邨 (TM487),欣田邨 (TM487),YAN TIN ESTATE (TM487),22.414268,113.977171
X33,O,1,24,66C1F17901E91CD9,五柳路 (TM489),五柳路 (TM489),NG LAU ROAD (TM489),22.415621,113.979772
X33,O,1,25,8A97896E33AED30C,藍地站 (TM341),蓝地站 (TM341),LAM TEI STATION (TM341),22.418158,113.981936
X33,O,1,26,54045C861286559E,青磚圍 (TM343),青砖围 (TM343),TSING CHUEN WAI (TM343),22.422507,113.985394
X33,O,1,27,8935A262593E620A,泥圍站 (TM345),泥围站 (TM345),NAI WAI STATION (TM345),22.423445,113.98627
X33,O,1,28,E701147EA74E97F2,亦園村 (TM347),亦园村 (TM347),YICK YUEN TSUEN (TM347),22.426616,113.989202
X33,O,1,29,CD077FC371E93248,鍾屋村站 (TM349),钟屋村站 (TM349),CHUNG UK TSUEN STATION (TM349),22.429686,113.992324
X33,O,1,30,4CEB8ACF469C6AD5,洪水橋站 (YL351),洪水桥站 (YL351),HUNG SHUI KIU STATION (YL351),22.43388,113.997787
X33,O,1,31,0C6879C89662708A,洪天路洪福邨 (YL581),洪天路洪福邨 (YL581),HUNG FUK ESTATE HUNG TIN ROAD (YL581),22.437764,113.998962
X33,O,1,32,DCA166B0A16656DD,洪元路洪福邨 (YL587),洪元路洪福邨 (YL587),"HUNG FUK ESTATE, HUNG YUEN ROAD (YL587)",22.437353,113.99662
